,Market Name,Address Line 1,City,Zip,Contact,State,Phone,Market Link,Operation Hours,Operation Season,Operating Months,FMNP,SNAP,FCC Issued,FCC Accepted,Latitude,Longitude
0,Ovid Farmers Market,Main Street,Ovid,14521.0,Patti Paine Battley,NY,3155399251,,Friday 3pm-7pm,June 19-September 25,M,Y,Y,N,Y,42.67552,-76.82293
1,Veggie Van MM-Taggert Playground,135 Odell St,Lackawanna,14218.0,Jen Regan,NY,7162990905,http://cceniagaracounty.org/communities/creating-healthy-schools-communities/creating-healthy-communities/veggie-van,Wed 2:30pm-3:30pm,June 1-October 31,M,Y,Y,N,Y,42.82093,-78.84284
2,Brooktondale Farmers' Market,522 Brooktondale Road,Brooktondale,14817.0,Barbara Perrone,NY,6075393244,http://bccmarket.wordpress.com,Thursday  4pm-7pm,June 4-September 24,M,Y,N,N,Y,42.38185,-76.39376
3,Veggie Mobile-North Albany YMCA,616 North Pearl Street,Albany,12204.0,Audrey Bridge,NY,5182748685,http://www.capitalroots.org,Wed 4:45pm-5:45pm,Year-round,YR,Y,Y,Y,Y,42.67368,-73.73953
4,Lori's Market Basket Farm Stand,51 State Street,Holley,14470.0,Lori Passarell,NY,5853310708,,Daily  9am-6pm,May 1-November 30,P/M,Y,N,N,Y,43.22135,-78.02329
5,Creekside Market Farm Stand,13971 Route 62,Collins,14034.0,Alan Butzer,NY,7165481863,http://www.creeksideproduce.com,Daily 10am-6pm,April 8-December 26,P/M/X,Y,Y,N,Y,42.498459999999994,-78.92872
6,Chiavetta's Potatoes & Greenhouse Farm Stand,9784 South Main St,Angola,14006.0,Michael Chiavetta,NY,7165490458,,"Sat/Sun 9am-5pm, Mon-Fri 9am-6pm",August 1-October 31,M,Y,Y,N,Y,42.618590000000005,-79.01784
7,Project EATS Rockaway Farm Stand,702 Rockaway Avenue,Brooklyn,11212.0,Shevan Durant,NY,2126121528,http://www.projecteats.org,Friday  8am-7pm,August 7-November 20,M,Y,Y,N,Y,40.662890000000004,-73.90907
8,Kristy's Barn Farm Stand,2385 Brookview Road,Castleton,12033.0,Kenneth Johnson,NY,5184776250,http://www.kristysbarn.com,"Mon-Fri 9am-7pm, Sat/Sun 10am-5pm",May 1-November 30,P/M,Y,N,N,Y,42.56495,-73.70495
9,Judson Farm Market FS,Route 22,Wingdale,12594.0,Richard Judson,NY,8458326286,,Daily 10am-6pm,August 1-October 30,M,Y,N,N,Y,41.62978,-73.57399000000001
10,Veggie Mobile-Koinonia Primary Care,553 Clinton Avenue,Albany,12206.0,Audrey Bridge,NY,5182748685,http://www.capitalroots.org,Tue 2pm-2:45pm,Year-round,YR,Y,Y,Y,Y,42.665079999999996,-73.76804
11,Germantown Farmers Market,50 Palatine Park Road,Germantown,12526.0,Lauren Williams,NY,5185675691,http://www.facebook.com/germantownfarmersmarketny,Saturday 10am-1pm,May 23-September 26,P/M,Y,N,N,Y,42.135,-73.88551
12,Salem Rt. 22 Farmers' Market,Route 22 and Railroad St.,Salem,12865.0,Cyd Groff,NY,5186421653,http://www.facebook.com/pages/Route-22-Farmers-Market-Salem-Granville-Whitehall/104950399561700,Saturday  10am-1pm,June 13-October 17,M,Y,N,N,Y,43.17322,-73.32836999999999
13,Pomonok Community Farm Stand,67-09 Kissena Blvd,Flushing,11367.0,Zani Simmons,NY,7185916060,http://www.facebook.com/QCHFarmersMarket,Wednesday  9am-4pm,July 8-November 19,M,Y,Y,N,Y,40.7353,-73.8146
14,Four Corners Farmers' Market,6000 Goodrich Rd,Clarence Center,14032.0,Deborah Tangelder,NY,7168661100,,Saturday 9am-2pm,June 6-October 17,M,Y,N,N,Y,43.01059,-78.63750999999999
15,170 Farm Stand,1406 Townsend Ave. and 170th Street,Bronx,10452.0,Theresa Conk,NY,7187168000,http://www.newsettlement.org/170FarmStand,Wed  2:30-6:30pm,August 12-Nov 25,M,Y,Y,N,Y,40.840090000000004,-73.9166
16,Spa City Farmers' Market,65 South Broadway,Saratoga Springs,12866.0,Colleen Zorbas,NY,5183390958,http://www.spacityfarmersmarket.com,Sundays  10am-2pm,Year-round,YR,Y,N,N,Y,43.06474,-73.78876
17,Westfield Farmers and Artisans Market,Rt 20 and Rt 394,Westfield,14787.0,Kathleen Mayer,NY,7167530367,http://www.westfieldny.com/farmers-market,Saturday  9am-2pm,May 30-September 26,P/M,Y,N,N,Y,42.32203,-79.57812
18,Cape Street Market,357 Gouvello St.,Cape Vincent,13618.0,Shelley Higgins,NY,3156542481,http://www.capevincent.org,Saturday  11am-5:30pm,June 20-September 19,M,Y,N,N,Y,44.12838,-76.33471999999999
19,PS 57  GrowNYC Farm Stand,115th St. and 3rd Ave,New York,10029.0,Siobahn Keys,NY,2127887476,https://www.grownyc.org/farmstands,Wed  9:30am-4pm,July 16-November 26,M,Y,Y,N,Y,40.797270000000005,-73.94051
20,Lamb's Quarters Organic Farm Stand,213 Pierce Road,Plymouth,13832.0,Sandy Pierce,NY,6073344928,http://www.lambsquartersinc.com,"Daily  12pm-6pm, Closed  Wed & Sat",Year-round,YR,Y,Y,N,Y,42.60058,-75.59991
21,New Rochelle Farmers' Market,20 Sicard Ave,New Rochelle,10804.0,Miriam Haas,NY,9149234837,http://www.downtoearthmarkets.com,Friday  9am-2pm,June 12-November 20,M,Y,Y,Y,Y,40.93407,-73.79099000000001
22,Curbside Market-Spa Apartments,11 East Main St.,Clifton Springs,14432.0,Andrea Cuzenz,NY,5854134069,http://www.foodlinkny.org,Tue 1:30pm-2:30pm,July 7-December 15,M/X,Y,Y,N,Y,42.96143,-77.13613000000001
23,Saratoga Farmers' Market-Saturday,3065 Route 50,Wilton,12866.0,Emily Meagher,NY,5187083698,http://www.saratogafarmersmarket.com,Saturday  9am-1pm,May 2-October 31,P/M,Y,Y,Y,Y,43.1054,-73.74047
24,The Mall at Greece Ridge Thu Farmers' Market,271 Greece Ridge Center Drive,Rochester,14626.0,Melanie Fazio,NY,5852251140,http://www.themallatgreeceridge.com,Thursday  8am-3pm,June 11-October 29,M,Y,N,N,Y,43.20677,-77.69406
25,Clinton Bailey Sun Farmers' Market,Bailey Ave and Clinton St,Buffalo,14206.0,Sharon Baldi,NY,7162080003,http://www.clintonbaileymarket.com,Sunday 7am-5pm,May 2-October 31,P/M,N,Y,N,Y,42.87206,-78.81997
26,Z Farms Farm Stand,355 Poplar Hill Road,Dover Plains,12522.0,Diana Zlotnikov,NY,9173196414,http://www.zfarmsorganic.com,"Saturday 2pm-5 pm, Sunday 10am-1pm",Year-round,YR,Y,Y,N,Y,41.75631,-73.55278
27,Exeter Park Produce and Garlic Farm Stand,147 South Road,West Winfield,13491.0,David or Cynthia Ball,NY,3159823589,http://www.exeterparkproduceandgarlic.com,Daily  10am-6pm,May 1 -October 31,M,Y,N,N,Y,42.83092,-75.1367
28,Harvest Home Hunts Point Farmers' Market,925 Hunts Point Ave.,Bronx,10474.0,Maritza Owens,NY,2128283361,http://www.harvesthomefm.org,Wednesday  8am-4pm,June 17 - November 25,M,Y,Y,N,Y,40.82073,-73.89088000000001
29,Isabahlia Farm Stand-Livonia Ave,410 Livonia Ave,Brooklyn,11212.0,Brenda Thompson-Duchene,NY,7184983174,http://www.isabahlialoefinc.org,Saturday  8am-3pm,June 30-October 31,M,Y,Y,N,Y,40.66353,-73.90226
30,57th Street Wednesday Greenmarket,891 Tenth Ave,New York,10019.0,Siobahn Keys,NY,2127887476,http://www.grownyc.org/greenmarket,Wednesday 8am-5pm,June 10-November 25,P/M,Y,Y,N,Y,40.7695,-73.98841
31,Park Slope Farmers' Market,289 4th Street,Brooklyn,11215.0,Miriam Haas,NY,9149234837,http://www.downtoearthmarkets.com,Sunday 10am-3pm,May 17-December 20,P/M/X,Y,Y,N,Y,40.6722,-73.98379
32,Cold Spring WINTER Farmers' Market,1 Chestnut St,Cold Spring,10516.0,Colin Wright,NY,9179570695,http://www.csfarmmarket.org,Saturday  9:30am-1:30pm,November 2-April 26,M/X/W/P,N,Y,N,Y,41.419897,-73.954688
33,Genesee Country Tuesday Farmers' Market,Bank St and Alva Place,Batavia,14020.0,Sharon Brent,NY,7165600853,,Tuesday 9am-4pm,June 9-October 27,M,Y,Y,N,Y,42.99905,-78.18151
34,MAP Mobile Market-Seneca St. CDC,1218 Seneca St,Buffalo,14210.0,Danielle Rovillo,NY,7168825327,http://www.mass-ave.org,Monday 2pm-3pm,August 1-December 31,M/X,Y,Y,N,Y,42.87018,-78.83319
35,Wagoner Bees & Produce Farm Stand,11137 Wayne Rd.,Fillmore,14735.0,Terry Wagoner,ny,5856108836,http://www.facebook.com/wagonerbees,"Sat/Sun 12pm-3pm, Mon/Tues/Fri  1pm-5pm, Wed/Thu 5pm-7pm",May 15-October 30,P/M,Y,Y,N,Y,42.48057,-78.09042
36,Rouses Point Farmers' Market,144 Lake Street,Rouses Point,12979.0,Jim Rabideau,NY,5182983878,http://www.facebook.com/events/1127448587272536/,Friday  3pm-7pm,June 19-September 4,M,Y,N,N,Y,44.99038,-73.36434
37,Veggie Mobile Sprout-Patroons  Dorp Apts,fowler ave and first street,Rensselaer,12144.0,Audrey Bridge,NY,5182748685,http://www.capitalroots.org,Tue 3:15pm-4pm,Year-round,YR,Y,Y,Y,Y,42.65482,-73.73432
38,Harrisville Farmers' Market,State Street and Main Street,Harrisville,13648.0,Laura La Platney,NY,3157771689,,Saturday  9am-4pm,May 30-October 31,P/M,Y,N,N,Y,44.14849,-75.31571
39,Wisner Park Farmers' Market,200 N Main St,Elmira,14901.0,Kate Boland,NY,6077340341,http://www.wisnermarket.org,Thursday  10am-2pm,May 28-September 24,P/M,Y,Y,N,Y,42.08943,-76.80801
40,East Greenbush Farmers' Market,10 Community Way,East Greenbush,12061.0,Shannon Romanowski,NY,5184772570,http://www.eastgreenbushlibrary.org,Wednesday  4pm-7pm,June 10-September 30,M,Y,N,N,Y,42.619,-73.69488
41,Union Square Friday Greenmarket,Broadway and East 17th St,New York,10003.0,Siobahn Keys,NY,2127887476,https://www.grownyc.org/greenmarket,Friday  8am-6pm,Year-round,YR,Y,Y,N,Y,40.73701,-73.99025
42,97th Street Greenmarket,West 97th St and Columbus Ave,New York,10025.0,Siobahn Keys,NY,2127887476,http://www.grownyc.org/greenmarket/manhattan/west-97,Friday  8am-2pm,Year-round,YR,Y,Y,N,Y,40.79356,-73.96701
43,Massena Farmers and Artisans Co-op-Thursday,105 Harte Haven Plaza,Massena,13662.0,Matt Martin,NY,3158428052,,Thursday 2pm-6pm,July 5-October 23,M,Y,Y,N,Y,44.92199,-74.88432
44,Massena Farmers and Artisans Co-op-Sunday,105 Harte Haven Plaza,Massena,13662.0,Matt Martin,NY,3158428052,,Sunday 10am-2pm,July 5-October 25,M,Y,Y,N,Y,44.92199,-74.88432
45,Braydon's Garden Farm Stand,328 North Main St,Salem,12865.0,Lisa Hunt,NY,5187426647,,Daily 9am-7pm,May 1-November 1,P/M,Y,N,N,Y,43.18091,-73.3259
46,Schoharie Co. Festival Wed Farmers' Market,942 East Main St,Cobleskill,12043.0,Donna Olsen,NY,5182842609,http://www.facebook.com/festivalfarmersmarket/,Wednesday  3pm-5pm,July 15-October 7,M,Y,Y,N,Y,42.68006,-74.46674
47,Sodus Farmers' Market,58 West Main St,Sodus,14551.0,Sandy Hall,NY,3154838029,http://www.sutmc.org/sodus-farmers-market,Wed  2:30pm-6pm,July 8-October 7,M,Y,Y,N,Y,43.23615,-77.06586999999999
48,Curbside Market-80 Parrish St. Apt,80 Parrish Street,Canandaigua,14424.0,Andrea Cuzenz,NY,5854134069,http://www.foodlinkny.org,Tue 11:15am-12:15am,July 7-December 15,M/X,Y,Y,N,Y,42.8789,-77.27981
49,Rochester Public Market -Tuesday,280 North Union St.,Rochester,14609.0,Cindy De Coste,NY,5854286907,http://www.cityofrochester.gov/publicmarket,Tuesday  6am-1pm,Year-round,YR,Y,Y,N,Y,43.1657,-77.59016
50,Poughkeepsie Plenty Fresh Market Farm Stand,29 N Hamilton Street,Poughkeepsie,12601.0,Justin Offerman,NY,8454543792,http://www.dutchessoutreach.org,"Tue/Wed/Thu, 11:30p-3:30p",June 1-November 15,M,Y,Y,N,Y,41.70459,-73.92197
51,Kids Farm Market,9282 Kellogg Rd,Washington Mills,13479.0,Amy Braun,NY,3157377171,https://m.facebook.com/profile.php?id=188960021191060,Daily 9am-6pm,May 1-December 24,P/M,Y,N,N,Y,43.05287,-75.2725
52,Seed Song Farm Stand,160 Esopus Ave,Kingston,12401.0,Creek Iverson,NY,8453831528,http://www.seedsongfarm.org,"Daily 10am-6pm, Winter hours change November",Year-round,YR,Y,N,N,Y,41.9556,-74.0067
53,Curbside Market-Fairport Apartments,1030 Whitney Road E,Fairport,14450.0,Andrea Cuzenz,NY,5854134069,http://www.foodlinkny.org,Thu 11am-12pm,July 9-December 17,M/X,Y,Y,N,Y,43.10913,-77.43938
54,White Valley Farm Stand,381 Heselton Road,Whitesville,14897.0,Justin Ellison,NY,5858086061,https://www.facebook.com/whitevalleyfarmNY/,Saturday 12pm-5pm,June 1-November 1,M,Y,N,N,Y,42.01631,-77.84727
55,Curbside Market-Waring Road Plaza,250 Waring Rd,Rochester,14609.0,Andrea Cuzenz,NY,5854134069,http://www.foodlinkny.org,Wed 11:45am-1pm,July 8-December 16,M/X,Y,Y,N,Y,43.1836,-77.56554
56,New Cassel Farmers' Market,212 Garden St,Westbury,11590.0,Traci Caines,NY,5169840230,http://www.facebook.com/pages/New-Cassel-Farmers-Market/138769932883107,Saturday  11am-3pm,July 11-October 31,M,Y,Y,N,Y,40.7622,-73.56766999999999
57,Jamaica Hospital Farm Stand,134-20 Jamaica Ave.,Jamaica,11418.0,Javier or Estella Perez,NY,8453810399,,Wednesday 9am-4pm,June 17-November 18,M,Y,N,N,Y,40.7024,-73.81766999999999
58,Delmar Tuesday Farmers' Market,428 Kenwood Ave,Delmar,12054.0,Richard Rugen,NY,5188634711,http://www.facebook.com/TuesdayDelmarFarmersMarket/,Tuesday  2:30pm-6pm,May 5-November 24,P/M,N,N,N,Y,42.62298,-73.83623
59,Beacon WINTER Farmers' Market,413 Main Street,Beacon,12508.0,Paloma Wake,NY,5108514865,http://www.beaconfarmersmarket.org,Sunday  10am-2pm,December 6-April 18,X/W/P,N,Y,N,Y,41.503209999999996,-73.96674
60,North Chili Farmers' Market,2200 Westside Dr,North Chili,14514.0,Roger Dart,NY,5853157754,http://www.umcofnorthchili.org,Saturday  8am-1pm,June 15-October 26,M,Y,N,N,Y,43.12648,-77.78969000000001
61,Astor Place Greenmarket,149-179 E 8th St,t New York,11218.0,Siobahn Keys,NY,2127887476,,Tuesday 8am-5pm,August 4  -November 24,M,Y,Y,N,Y,40.64658,-73.97198
62,Haverstraw Farmers' Market,New Main St and Maple Ave,Haverstraw,10927.0,Elaine Fernandez,NY,8454290300,https://voh-ny.com/faq/,Sunday  9am-1pm,June 21-October 25,M,Y,N,N,Y,41.19639,-73.96645
63,Huntington Farm Stand II,11503 Main Street,Clarence,14031.0,Dan Huntington,NY,7163930590,,Daily 11am-7pm,June-October,M,Y,N,N,Y,42.989090000000004,-78.55762
64,JCEO MM-Brainardsville 4 Corners,2392 CR 24,Brainardsville,12915.0,Richard LaVigne,NY,5183194028,http://www.jceo.org,Friday  12:30pm-2:00pm,June 12-November 13,M,Y,Y,N,Y,44.858090000000004,-74.0333
65,Sullivan Fresh Market on the Move-PHS,50 Community Lane,Liberty,12754.0,Michelle Proscia,NY,8452926180,,Wednesday 11am-1pm,July1-September 30,M,Y,Y,N,Y,41.79551,-74.71228
66,Ossining Farmers' Market,100 Main Street,Ossining,10562.0,Miriam Haas,NY,9149234837,http://www.downtoearthmarkets.com,Saturday 8:30am-1pm,May 1-December 19,YR,Y,Y,Y,Y,41.16105,-73.86350999999999
67,Bath Saturday Farmers' Market,Steuben St and Liberty St,Bath,14810.0,Phillip Glosick,NY,6077763577,,Saturday  9am-2pm,May 4-October 26,P/M,Y,N,N,Y,42.333529999999996,-77.31841999999999
68,Auburn Sat Farmers' Co-op Market,96 State Street,Auburn,13021.0,Mark Soper,NY,3157048609,http://www.auburnfarmerscoopmarketinc.com,Sat  7am-2pm,June 6-October 31,M,Y,Y,N,Y,42.934059999999995,-76.56985
69,Village of Monroe Farmers' Market,68 Millpond Pkwy,Monroe,10950.0,Dorey Houle,NY,9175382821,http://www.facebook.com/villageofmonroefarmersmarket,Sunday  9am-2pm,June 7-November 22,M,Y,N,N,Y,41.32983,-74.189196
70,Gouverneur Farmers' Market,East Main Street and Village Park,Gouverneur,13642.0,Donna Besaw,NY,3152870331,http://www.gouverneurchamber.net,Thursday  9am-2pm,June 5-October 29,M,Y,Y,N,Y,44.33871,-75.45766
71,Middletown Farmers' Market,32-48 Cottage Street,Middletown,10940.0,Anne Kelly,NY,8453438075,http://www.middletownbid.org,Saturday  8am-1pm,June 6-October 24,M,Y,N,N,Y,41.44814,-74.41459
72,Bowen Farm Stand,14 North Columbus Ave.,Mount Vernon,10553.0,Ruth Crosby,NY,9144821749,,"Wednesday 2pm-6pm, Thu/Fri/Sat  2pm-8pm",July 15-November 30,M,Y,N,N,Y,40.9125,-73.82372
73,Alden Farmers' Market,13119 Broadway,Alden,14004.0,Alyssa Cooper,NY,7169376177,http://www.aldenny.org,Saturday  8:30am-1pm,June 6-October 10,M,Y,N,N,Y,42.89784,-78.49904000000001
74,Sunrise Farms Farm Stand,252 Plymouth-North Norwich Rd.,Plymouth,13832.0,Kathryn Clemens,NY,6073365834,,"Mon-Fri  8am-6pm, Sat/Sun 1pm-5pm",April 1-November 30,P/M,Y,N,N,Y,42.62427,-75.59151999999999
75,Delmar Saturday Farmers' Market,332 Kenwood Avenue,Delmar,12054.0,Ken Myer,NY,5184871991,http://www.delmarmarket.org,Saturday  9am-1pm,May 16-December 19,P/M,Y,Y,N,Y,42.60116,-73.84
76,MAP Farm Stand,389 Massachusetts Ave.,Buffalo,14213.0,Danielle Rovillo,NY,7168825327,http://www.mass-ave.org,Thursdays  4pm-6pm,Year-round,YR,Y,Y,N,Y,42.9128,-78.88774000000001
77,Rockefeller Center Fri Greenmarket,Rockefeller Plaza and West 50th St,New York,10112.0,Siobahn Keys,NY,2127887476,http://www.grownyc.org/greenmarket,Friday  8am-5pm,July 17-August 21; Oct 2-October 23,M,Y,Y,N,Y,40.75914,-73.97873
78,Clayton Chamber of Commerce Farmers' Market,425 Mary Street,Clayton,13624.0,Tricia Bannister,NY,3156863771,http://www.1000islands-clayton.com,Thursday  10am-4pm,June 4-September 24,M,Y,N,N,Y,44.23992,-76.08508
79,Three Village Farmers Market,93 North Country Rd,Setaucet,11733.0,Linda Johnson,NY,6319017151,http://www.instagram.com/threevillagemarket/,Friday 3pm-7pm,June 12-October 2,M,Y,N,N,Y,40.93391,-73.11775
80,Veggie Mobile-Arbor Hill/Oak Street Park,Second Street & Oak Street,Albany,12210.0,Audrey Bridge,NY,5182748685,http://www.capitalroots.org,Thu 12:15pm-1pm,Year-round,YR,Y,Y,Y,Y,42.6629,-73.76094
81,Constantine Farm Stand,566 Albany Shaker Road,Loudonville,12211.0,Emily Szesnat,NY,5184588294,http://www.constantinefarms.com,"Sat/Sun 9am-5pm, Mon-Fri 8am-5pm",July 15-October 1,M,Y,N,N,Y,42.717220000000005,-73.78613
82,Kingston YMCA Farm Stand,507 Broadway,Kingston,12401.0,Kaycee Wimbish,NY,8453322927,http://www.kingstonymcafarmproject.org,"Tuesday 10am-12:30pm, Thursday  3:30pm-6pm",June 4-Novenmber 19,M,Y,Y,N,Y,41.92805,-74.0007
83,Lewis Co. General Hospital Farmers' Market,7785 North State St,Lowville,13367.0,Tina Schell,NY,3153765087,http://www.lcgh.net,Thursday  11am-4pm,June 11-October 1,M,Y,N,N,Y,43.79599,-75.49831999999999
84,Dryden Farmers' Market,59 West Main St.,Dryden,13053.0,Kelly Ritter,NY,6078448663,,Saturday  9am-1pm,June 15-September 26,M,Y,N,N,Y,42.49034,-76.30358000000001
85,Seps Family Farm Farm Stand,7395 Main Rd,East Marion,11939.0,Peter and Kathryn Sepenoski,NY,6314771583,,Thu-Mon 10am-5pm,April-December 19,P/M/X,Y,N,N,Y,41.12365,-72.34486
86,Petuskes Produce Farm Stand,39 Halfmoon Drive,Waterford,12188.0,Michelle Petuske,NY,5183715709,,"Mon-Fri 9am-5:30pm, Sun/Sat 9am-4pm",May 6-September 30,M,Y,Y,N,Y,42.82758,-73.71722
87,Curbside Market-Hudson Ridge Tower,401 Seneca Manor Drive,Rochester,14621.0,Andrea Cuzenz,NY,5854134069,http://www.foodlinkny.org,Wed 3:30pm-5pm,July 8-December 16,M/X,Y,Y,N,Y,43.193090000000005,-77.60324
88,Staten Island Mall Greenmarket,2655 Richmond Ave,Staten Island,10314.0,Siobahn Keys,NY,2127887476,http://www.grownyc.org/greenmarket,Saturday  8am-3pm,Year-round,YR,Y,Y,N,Y,40.581990000000005,-74.16606999999999
89,Veggie Mobile-Van Rensselaer Heights,460 Forbes Avenue,Rensselaer,12144.0,Audrey Bridge,NY,5182748685,http://www.capitalroots.org,Thu 10:45am-11:15am,Year-round,YR,Y,Y,Y,Y,42.65953,-73.73008
90,Dobler Farm Stand-Dix Hills,1145 Carlls Straight Path,Dix Hills,11746.0,Erika Dobler,NY,5169651568,http://www.doblerfarms.com,Daily  10am-5pm,July 1-October 20,M,Y,N,N,Y,40.79075,-73.32035
91,Andrews Family Farm Farm Stand,1038 Sound Ave,Calverton,11933.0,Robert Andrews,NY,6319295963,,Daily 9am-6pm,April 25-November 25,P/M,Y,N,N,Y,40.94993,-72.80243
92,Northern Orchard Farm Stand,470 Union Road,Peru,12972.0,Jenna Mulbury,NY,5186439718,http://www.northernorchard.com,"Daily  10am-5pm, Closed Tuesday",May 10-December 23,P/M/X,Y,Y,N,Y,44.5569,-73.53324
93,Bethel Hobbs Community Farm Stand,178 Oxhead Road,Centereach,11720.0,Ann Pellegrino,NY,6317741556,http://www.hobbsfarm.info,Saturday  10am-2pm,May 30-October 10,P/M,Y,N,N,Y,40.872,-73.09635
94,Catskill Cattle Farm Stand,96 Laurel Bank Ave,Deposit,13754.0,Lonny Schaefer,NY,6074675762,http://www.catskillcattle.com,"Mon-Sat  9am-6pm, Sunday 12pm-4pm, Winter:  hours change",Year-round,YR,Y,N,N,Y,42.06673,-75.40725
95,Veggie Mobile Sprout-Church of the Redeemer,1249 3rd Street,Rensselaer,12144.0,Audrey Bridge,NY,5182748685,http://www.capitalroots.org,Thu 3pm-3:45pm,Year-round,YR,Y,Y,Y,Y,42.65038,-73.73443
96,Hastings WINTER Farmers' Market,134 Southside Ave,Hastings on Huds,10706.0,Pascale Le Draoulec,NY,9148063380,http://www.hastingsfarmersmarket.org,Saturday 830am-130pm,Dec 7-May 23,X/W/P,N,Y,N,Y,40.9943,-73.88424
97,Niagara Falls City Wednesday Market,1800-1808 Pine Ave,Niagara Falls,14301.0,Victor Muto,NY,7167540798,http://www.local-farmers-markets.com/market/3569/niagara-falls/niagara-falls-city-market,Wednesday  9am-3pm,Year-round,YR,Y,N,N,Y,43.09513,-79.03971999999999
98,JCEO MM-Owls Head,197 ounty Route27,Owls Head,12969.0,Richard LaVigne,NY,5183194028,http://www.jceo.org,Wed  12:30pm-2:00pm,June 10-October 14,M,Y,Y,N,Y,44.69206,-74.11341
99,Curbside Market-Ellison Park Apts,4 Bobrich Drive,Rochester,14610.0,Andrea Cuzenz,NY,5854134069,http://www.foodlinkny.org,Thu 4:15pm-5:15pm,July 9-December 17,M/X,Y,Y,N,Y,43.14804,-77.54569000000001
100,Fordham Plaza Greenmarket,1 Fordham Plaza,Bronx,10458.0,Siobahn Keys,NY,2127887476,http://www.grownyc.org/greenmarket,Friday  8am-4pm,July 10-November 20,M,Y,Y,N,Y,40.86002,-73.89106
101,Healthy Orange Farmers' Market,131 Broadway,Newburgh,12550.0,Meg Oakes,NY,8453606691,http://www.healthyorange.com/,Tuesday  10am-2pm,July 7-October 13,M,Y,Y,N,Y,41.50009,-74.01254
102,Panek's Pickin' Patch,13420 W County House Rd.,Albion,14411.0,Guinevere Panek,NY,5855896155,http://www.panekspickinpatch.com,Daily  9am-5pm,June 1-October 31,M,Y,N,N,Y,43.21866,-78.2551
103,Brightly's Farm Market,525 Drake Rd.,Hamlin,14464.0,Betsy Brightly,NY,5856364337,http://www.brightlyfarms.com,"Daily 9am-5pm, delivery options",Year-round,YR,Y,N,N,Y,43.294709999999995,-77.94344
104,Cambridge Valley Farmers' Market,4 Broad Street,Cambridge,12816.0,Lindsay Fisk,NY,5185389467,http://www.cambridgevalleyfarmersmarket.com,Sunday  10am-2pm,May 24-October 25,P/M,Y,N,N,Y,43.02833,-73.38093
105,Grass Roots Farmers' Market,West 145th St and Edgecombe Ave,New York,10030.0,Gabrielle Girigorie,NY,2122522113,,Sat/Tue  9am-4pm,July 7-November 28,M,Y,Y,N,Y,40.82365,-73.94385
106,Babylon Village Farmers' Market,51 Railroad Avenue,Babylon,11702.0,Lona Graepel,NY,6319442661,http://www.longislandfarmersmarkets.com,Sunday  8am-12:30pm,June 7-November 22,M,Y,N,N,Y,40.69992,-73.3245
107,Enough...and a Little Bit More Farm Stand,4776 State Highway 41,Greene,13778.0,Jim Girton,NY,6076567242,http://www.enoughandalittlebitmore.com,"Mon-Fri  11am-6pm, Sat/Sun  3pm-7pm",May 1-October 31,P/M,Y,N,N,Y,42.37041,-75.78369
108,Pray's Family Farm Stand-Keesville,391 Route 9N,Keeseville,12944.0,Darcy Pray,NY,5188347437,http://www.praysmarket.com,Daily 9am-6pm,May 1-Occtober 31,P/M,Y,N,N,Y,44.49367,-73.50798
109,Richfield Springs Area Sat Farmers' Market,Main St and Church St,Richfield Springs,13439.0,Ronald Bayzon,NY,3158582703,,Saturday  8am-1pm,June 20-October 31,M,Y,N,N,Y,42.853590000000004,-74.98476
110,Curbside Market-Phillips Village,100 Krieger Rd.,Webster,14580.0,Andrea Cuzenz,NY,5854134069,http://www.foodlinkny.org,Sat 11am-12:15pm,July 11-December 19,M/X,Y,Y,N,Y,43.20943,-77.4189
111,Dave's Produce Farm Stand,6719 State Route 415 South,Bath,14810.0,David Hyer,NY,6077947043,,"Sunday 10am-5pm, Mon-Sat 9am-6pm, Nov-Dec: 10am-5pm",April 19-December 24,P/M/X,Y,N,N,Y,42.325829999999996,-77.29073000000001
112,Tribeca Greenmarket Wednesday,Greenwich St and Chambers St,New York,10023.0,Siobahn Keys,NY,2127887476,http://www.grownyc.org/greenmarket,Wednesday  8am-3pm,Year-Round,YR,Y,Y,N,Y,40.71629,-74.01095
113,Oxford WINTER Farmers' Market,34 Main St.,Oxford,13830.0,Mina Takahashi,NY,6072266843,https://www.facebook.com/OxfordNYFarmersMarket,1st Saturday  10am-1pm,November-April,M/X/W/P,N,N,N,Y,42.440234000000004,-75.594121
114,JCEO MM-Elm St. Housing,215 Elm St,Malone,12953.0,Richard LaVigne,NY,5183194028,http://www.jceo.org,Thursday 11:30am-12:45pm,June 11-October 15,M,Y,Y,N,Y,44.85535,-74.28165
115,MAP Mobile Market-Jericho Rd Broadway,1021 Broadway,Buffalo,14212.0,Danielle Rovillo,NY,7168825327,http://www.mass-ave.org,Friday 2pm-4pm,August 1-December 31,M/X,Y,Y,N,Y,42.89347,-78.83678
116,Veggie Mobile-Father Leo Obrien,3151 Marra Lane,Schenectady,12303.0,Audrey Bridge,NY,5182748685,http://www.capitalroots.org,Mon 1pm-1:45pm,Year-round,YR,Y,Y,Y,Y,42.76062,-73.94004
117,Elmwood Village Farmers' Market,Elmwood Ave and Bidwell Pkwy,Buffalo,14222.0,Ashley Smith,NY,7168810707,http://www.elmwoodmarket.org,Saturday  8am-1pm,May 9-November 28,P/M,Y,Y,N,Y,42.92371,-78.87702
118,Vestal Farmers' Market,320 Vestal Pkwy East,Vestal,13850.0,MaKenzie Darrow,NY,6072065742,http://www.facebook.com/VestalFarmersMarket,Sat/Wed  9am-1pm,May 23-November 25,P/M,Y,N,N,Y,42.087322,-76.04567800000001
119,Glens Falls WINTER Farmers' Market,10 Sanford Street,Glens Falls,12801.0,Richard Sandora,NY,5187920438,http://www.glensfallsfarmersmarket.com,Saturday  9am-12pm,"November 1-April 25,2020",M/X/W/P,N,Y,N,Y,43.3173,-73.65347
120,R & G Produce Farm Stand,997 NY Route 22,Brewster,10509.0,Mike Miller,NY,8459817200,,Saturday 8am-3pm,June 7-November 28,M,Y,N,N,Y,41.39785,-73.60218
121,City of Hudson WINTER Farmers' Market,601 Union St.,Hudson,12534.0,Marilyn Cederoth,NY,5189650552,http://www.hudsonfarmersmarketny.com,Saturday  10am-1pm,"Dec; February-April 25, 2020",X/W/P,N,N,N,Y,42.24738,-73.78535
122,Freeville Farmers Market,43 Main St.,Freeville,13068.0,Genevieve DeClerck,NY,6072295196,http://freevillefarmersmarket.org,Sunday 12pm-3pm,May 3-Sepember 20,P/M,Y,N,N,Y,42.511790000000005,-76.35084
123,Columbia Sun Greenmarket,Broadway and West 115th St,New York,10027.0,Siobahn Keys,NY,2127887476,http://www.grownyc.org/greenmarket,Sunday  8am-3pm,Year-round,YR,Y,Y,N,Y,40.8073,-73.9643
124,Russell Farms Farm Stand,2909 Old Vestal Rd,Vestal,13850.0,Allison Russell,NY,6079725793,http://www.russell-farm.com,Daily 8am-6pm,September 1-Nov 30,M,Y,N,N,Y,42.1009,-76.0078
125,Kubeckas Farm Stand,691 Chestnut Ridge Rd,Kirkville,13082.0,Karissa Atwood,NY,3156322739,,Mon-Sat 10am-5pm,June 13-October 31,M,Y,N,N,Y,43.112390000000005,-75.94782
126,Taste NY at WNY Welcome Center Farmers Market,1999 Alvin Rd,Grand Island,,Renee Day,NY,7169843040,,Thursday 4pm-7pm,June 25-September 3,M,N,N,N,Y,43.01578,-78.97151
127,Candor Farmers Market,101 Owego Rd,Candor,13743.0,Joellen Riggs,NY,6077684072,http://www.candorfarmersmarket.org/,Thu 3:30pm-6:30pm,June 25-September 3,M,Y,Y,N,Y,42.232490000000006,-76.33317
128,Lansing Farm Market,204 LishaKill,Niskayuna,12309.0,Al Or Jessica Lansing,NY,5184640889,http://www.lansingfarmmarket.com,Daily 9am-5pm,May 1-November 20,P/M,Y,N,N,Y,42.7629,-73.85446999999999
129,Project EATS St. Barnabas,4522 Third Ave.,Bronx,10457.0,Shevan Durant,NY,2126121528,http://www.projecteats.org,Wednesday 10am-7pm,August 8-November 11,M,Y,Y,N,Y,40.85495,-73.89033
130,Valley Stream Farmers' Market,123 W Merrick Rd,Valley Stream,11580.0,Ethel Terry,NY,6313233653,http://longislandgrowersmarket.com,Thursday 7am-1pm,July 9-November 19,M,Y,N,N,Y,40.66599,-73.70221
131,Curbside Market-Creek House Commons,3000 White Swan Dr,Rochester,14626.0,Andrea Cuzenz,NY,5854134069,http://www.foodlinkny.org,Sat 3:45pm-5pm,July 11-December 19,M,Y,Y,N,Y,43.21894,-77.73798000000001
132,Mosher Farms Farm Stand,3214 Fargo Rd,Bouckville,13310.0,Terry Mosher,NY,3158937173,http://www.mosherfarms.com,"Mon-Sat 9am-6pm, Sunday 10am-6pm",June 10-October 31,M,Y,N,N,Y,42.87972,-75.57175
133,Harvest Home Metropolitan Farmers' Market,2nd Ave. at East 99th St.,New York,10029.0,Maritza Owens,NY,2128283361,http://www.harvesthomefm.org,Friday  8am-4pm,June 17-November 20,M,Y,Y,N,Y,40.78553,-73.94615
134,Broadway Farmers' Market,999 Broadway,Buffalo,14212.0,Kathleen Peterson,NY,7168930705,http://broadwaymarket.org/,Mon-Sat  8am-5pm,year-round,YR,N,Y,N,Y,42.893162,-78.83766700000001
135,Veggie Mobile-Steamboat Square Apts,20 Rensselaer Street,Albany,12202.0,Audrey Bridge,NY,5182748685,http://www.capitalroots.org,Wed 11am-11:45am,Year-round,YR,Y,Y,Y,Y,42.64093,-73.75363
136,Farm This Way Farm Stand,11086 Brant Reservation Road,Brant,14027.0,Carolyn Rosier,NY,7165491038,,Daily 9am-5pm,May 1-October 31,P/M,Y,N,N,Y,42.580290000000005,-79.01732
137,Hilltop Hanover Farm Farm Stand,1271 Hanover St,Yorktown heights,10598.0,Sophie Vranian,NY,9149622368,http://www.hilltophanoverfarm.org,"Friday  1pm-6pm, Sat  10am-4pm",April 24-November 24,P/M,Y,N,N,Y,41.25159,-73.7724
138,Patchogue (Sun) Farmers' Market,210 S. Ocean Ave.,Patchogue,11772.0,Ethel Terry,NY,6313233653,http://www.longislandgrowersmarket.com,Sunday  9am-2pm,June 6-November 14,M,Y,N,N,Y,40.76165,-73.01337
139,Cortland Saturday Farmers' Market,Main St and Orchard St,Cortland,13045.0,Laura Morak,NY,6077588332,,Saturday  8am-2pm,May 16-October 31,M,Y,Y,N,Y,42.60028,-76.18044
140,Morris Farmers' Market,Main St and Church St,Morris,13808.0,Paul Tourtellotte,NY,6072635423,,Thursday  3pm-5:30pm,May 28-October 15,P/M,Y,N,N,Y,42.54813,-75.24686
141,Capital Roots Produce Market,594 River Street,Troy,12180.0,Audrey Bridge,NY,5182748685,http://www.capitalroots.org,Mon-Fri  9am-4:30pm,Year-round,YR,Y,Y,Y,Y,42.74208,-73.68525
142,Cortland Tues Farmers Market,Main St and Orchard St,Cortland,13045.0,Laura Morak,NY,6077588332,,Tuesday 8am-2pm,May 19-October 27,M,Y,Y,N,Y,42.60028,-76.18044
143,Watertown Farm & Craft Market,317 Washington Street,Watertown,13601.0,Kylie Peck,NY,3157884400,http://www.watertownny.com,Wed 7am-3pm,May 27-October 7,P/M,Y,Y,N,Y,43.97173,-75.91116
144,Newburgh Farmers Market,95-107 Broadway,Newburgh,12550.0,Sember Weinman,NY,8452314424,http://www.facebook.com/newburghnyfarmersmarket,Saturday 10am-2pm,July 18-October 31,M,Y,Y,N,Y,41.49992,-74.0112
145,Clinton Bailey Thurs Farmers' Market,Bailey Ave and Clinton St,Buffalo,14206.0,Sharon Baldi,NY,7162080003,http://www.clintonbaileymarket.com,Thurday  4am-6pm,May 1-October 31,P/M,Y,Y,N,Y,42.87206,-78.81997
146,Gansevoort Farmers' Market,Main St. at Catherine St.,Gansevoort,12831.0,Linda Gifford,NY,5187920198,,Tuesday  3pm-6pm,June 16-October 27,M,Y,N,N,Y,43.19612,-73.65167
147,NYC Health+Hospitals Farmers' Market-Queens 1,82-68 164th St,Jamaica,11432.0,Sandra Springer,NY,7188832134,http://www.nychealthandhospitals.org,Thursday  8am-4pm,July 30-November 30,M,Y,N,N,Y,40.71753,-73.80373
148,175th Street Greenmarket,651 West 175th St and Broadway,New York,10038.0,Siobahn Keys,NY,2127887476,http://www.grownyc.org/greenmarket,Thursday  8am-4pm,June 25-November 19,M,Y,Y,N,Y,40.84622,-73.93847
149,Halfmoon Farmers' Market,2 Halfmoon Town Plaza,Halfmoon,12065.0,Ross MacNeil,NY,5183717410,,Wednesday 3pm-7pm,June 17-September 30,M,Y,N,N,Y,42.85348,-73.72559
150,Rockville Centre Farmers' Market,Sunrise Hwy and Long Beach Rd,Rockville Centre,11570.0,Ethel Terry,NY,6313233653,http://www.longislandgrowersmarket.com,Sunday  7am-12pm,June 7-November 29,M,Y,N,N,Y,40.65712,-73.6321
151,Saugerties Farmers' Market,115 Main Street,Saugerties,12477.0,Judith Spektor,NY,8454191555,http://saugertiesfarmersmarket.com,Saturday  10am-2pm,May 23-October 31,P/M,Y,Y,N,Y,42.07901,-73.94894000000001
152,Ithaca Farmers' Market (Steamboat Sat),545 Third Street,Ithaca,14850.0,Kelly Sauve,NY,6072737109,http://www.ithacamarket.com,Saturday  9am-3pm,April 4-December 19,P/M/X,Y,N,N,Y,42.44958,-76.50785
153,Bushwick Bethel Farm Stand,215 Cooper St.,Brooklyn,11207.0,Novelette Scott,NY,7188210254,http://www.bushwickfarmersmarket.org,Thursday  10pm-3pm,May 23-November 21,P/M,Y,Y,N,Y,40.6898,-73.9056
154,Eastgate Farmers' Market,4927-5089 Transit Road,Clarence,14221.0,Julie Fix-Minchen,NY,7168789628,http://eastgatefarmersmarket.com,Wednesday  3pm-7pm,June 17-October 14,M,Y,N,N,Y,42.9861,-78.69691
155,Irondequoit Farmers' Market,1280 Titus Ave,Rochester,14617.0,Don Sinton,NY,5853367060,http://www.irondequoit.org,Thursday  4pm-8pm,May 28-October 15,P/M,Y,Y,N,Y,43.21118,-77.58154
156,Henderberg Farms Farm Stand,3820 Hwy 414,Rose,14542.0,Irene Henderberg,NY,3155879062,,Daily 12pm-7pm,May 1-November 20,P/M,Y,N,N,Y,43.144290000000005,-76.87491999999999
157,Fort Washington Greenmarket,Fort Washington Ave and West 168th St,New York,10032.0,Siobahn Keys,NY,2127887476,http://www.grownyc.org/greenmarket,Tuesday  8am-4pm,June 2-November 24,M,Y,Y,N,Y,40.84217,-73.94229
158,Parsons Vegetable Farm Farm Stand,756 US Highway 20,Sharon Springs,13459.0,Kenyon Parsons,NY,5182842330,http://www.facebook.com/Parsons-Vegetable-Farm-458674077476065/,"Daily 10am-7pm, Nov/Dec 10a-4p",May 5-December 24,P/M,Y,N,N,Y,42.78332,-74.60004
159,6th Ave. Sunset Park Greenmarket,44th Street at 6th Avenue,Brooklyn,11220.0,Siobahn Keys,NY,2127887476,http://www.grownyc.org/greenmarket,Saturday  8am-3pm,Year-round,YR,Y,Y,N,Y,40.64711,-74.00463
160,Geneva Farmers' Market,400 Exchange St,Geneva,14456.0,David Sharman,NY,3157895005,http://www.downtowngeneva.org/farmers-market.html,Wednesday 3pm-7pm,June 17-October 14,M,Y,N,N,Y,42.869,-76.98106
161,Broadalbin Farmers' Market,3687 Highway 30,Broadalbin,12025.0,Michael Tillson,NY,5188829306,http://www.fmfma.org,Friday 3pm-6pm,June 26-September 4,M,Y,N,N,Y,43.04809,-74.2173
162,MAP Mobile Market-Veterans One Stop,1280 Main St,Buffalo,14209.0,Danielle Rovillo,NY,7168825327,http://www.mass-ave.org,Friday 10am-11am,July 3-December 31,M/X,Y,Y,N,Y,42.908609999999996,-78.86713
163,Clinton Bailey Tues Farmers' Market,Bailey Ave and Clinton St,Buffalo,14206.0,Sharon Baldi,NY,7162080003,http://www.clintonbaileymarket.com,Tuesday 4am-6pm,May 2-October 31,P/M,Y,Y,N,Y,42.87206,-78.81997
164,Route 50 Green Market,802 Saratoga Rd.,Burnt Hills,12027.0,Carol Gumienny,NY,5188858502,,Saturday  9am-1pm,June 1-October 3,M,Y,N,N,Y,42.90853,-73.89973
165,Outback Farm Farm Market,2135 County Rd 8,Canandaigua,14424.0,Marlin & Leann Sensenig,NY,7175870079,,"Mon-Fri 8am-8pm, Saturday 8am-4pm",April 20-November 30,P/M,Y,N,N,Y,42.92848,-77.30929
166,Wolcott Area Farmers' Market,Washington Street and New Hartford Street,Wolcott,14590.0,David & Cindy Savary,NY,3158790798,,Mon & Thu  1pm-5pm,June 22-October 15,M,Y,Y,N,Y,43.21855,-76.81491
167,Hartsdale Farmers' Market,East Hartsdale Ave and Fenimore Rd,Hartsdale,10530.0,Nancy Chiocchi,NY,9149499403,,Saturday  8am-4pm,June 1-November 21,M,Y,N,N,Y,41.01072,-73.79656
168,Schenectady City Hall Farmers' Market,105 Jay Street,Schenectady,12305.0,Steve Feeney,NY,5183862225,http://www.schenectadycounty.com/farmersmarket,Thu  9:30am-1:30pm,May 7-October 29,P/M,Y,Y,N,Y,42.81378,-73.94032
169,Watertown Saturday Farmers' Market,175 Black River Parkway,Watertown,13601.0,Shawn Chamberlain,NY,3154081088,http://www.facebook.com/Watertown-Saturday-Farmers-Market-106662177762/,Saturday  9am-2pm,May 30-October 31,M,Y,N,N,Y,43.97651,-75.90988
170,Shield's Vegetables Farm Stand,6303 State Route 22,Plattsburgh,12901.0,Sam Dyer,NY,5185610473,http://www.facebook.com/shieldsvegetables/,Daily  10am-6pm,July 1-October 31,M,Y,Y,N,Y,44.73789,-73.47064
171,Canticle Farm Market,3809 Old State Road,Allegany,14706.0,Mark Printz,NY,7163789714,http://www.canticlefarm.org,"Tue/Fri  12pm-6pm, Dec-June: Tuesday only",June 16-November 24,M,Y,Y,N,Y,42.09601,-78.50618
172,East Aurora Wednesday Farmers' Market,123 Grey St,East Aurora,14052.0,Gail Fenton,NY,5853439491,http://www.facebook.com/EastAuroraFarmersMarket,Wednesday  7am-1pm,May 6-November 25,P/M,Y,N,N,Y,42.76593,-78.63413
173,Mar-San Farm Stand,583 Sheldon Rd.  Freeville,Freeville,13068.0,Margaret Tracy,NY,6073474617,http://www.facebook.com/Mar-San-Farm-Stand-133679867229528/,Mon/Wed/Thu  8am-6pm,Junly1-November 1,M,Y,N,N,Y,42.5272,-76.41507
174,Farm & Artisan Market at the Villa,140 North Main Street,Warsaw,14569.0,Lisa Seewaldt,NY,5857868766,http://www.marketatthevilla.com,Wednesday  2pm-6pm,June 10-September 30,M,Y,N,N,Y,42.743109999999994,-78.13256
175,Lower East Side  GrowNYC Farm Stand,Grand St and Pitt St,New York,10002.0,Siobahn Keys,NY,2127887476,https://www.grownyc.org/farmstands,Thursday  8am-3pm,July 16-November 20,M,Y,Y,N,Y,40.71523,-73.9843
176,Schoharie Valley Farms Farm Stand,5605 State Route 30,Schoharie,12157.0,Shirley Ball,NY,5182957139,http://www.schoharievalleyfarms.com/,Daily 9am-6pm,March 1-December 24,W/P/M/X,Y,N,N,Y,42.68477,-74.29692
177,Cincinnatus Farmers' Market,2704 Lower Cincinnatus Rd,Cincinnatus,13040.0,Paul Halstead,NY,6078368972,,Saturday  9am-12pm,May 30-October31,P/M,Y,N,N,Y,42.53812,-75.89662
178,Juliano's Farm Market,2365 State Route 5,Utica,13502.0,Deborah E Juliano,NY,3157230022,,"Mon-Sat 8am-6pm, Sunday 8am-4pm",April 23-October 31,P/M,Y,N,N,Y,43.09608,-75.14626
179,Huntington Farmers' Market,228 Main St,Huntington,11743.0,Lona Graepel,NY,6319442661,,Sat 7:30am-12:30pm,June 13-Nov 21,M,Y,N,N,Y,40.871629999999996,-73.42456
180,Grand Army Plaza Greenmarket,Flatbush Ave and Grand Army Plaza,Brooklyn,11238.0,Siobahn Keys,NY,2127887476,http://www.grownyc.org/greenmarket/brooklyn-grand-army-plaza,Saturday  8am-4pm,Year-round,YR,Y,Y,N,Y,40.67412,-73.9695
181,Kwilos Farm Farm Stand,7678 Erie Rd.,Derby,14074.0,Joseph Kwilos,NY,7165496201,,"Mon-Sat  10am-6pm, Sunday  10am-4pm",May 8-October 31,P/M,Y,N,N,Y,42.67729,-79.02178
182,B30 Farm Farm Stand,676 Baldwin Road,Fulton,13069.0,Timothy F. Moshier,NY,3154399991,,Monday 1pm-6pm,Year-round,YR,Y,N,N,Y,43.38285,-76.34859
183,Bath Wednesday Farmers' Market,Steuben St and Liberty St,Bath,14810.0,Hazel Buck,NY,6077943494,http://www.facebook.com/bathnyfarmersmarket/,Wednesday  9am-2pm,May 6-October 28,P/M,Y,Y,N,Y,42.333529999999996,-77.31841999999999
184,Union Square Monday Greenmarket,Broadway and East 17th St,New York,10003.0,Siobahn Keys,NY,2127887476,https://www.grownyc.org/greenmarket/manhattan-union-square-w,Monday  8am-6pm,Year-round,YR,Y,Y,N,Y,40.737120000000004,-73.99029
185,Curbside Market-Kennedy Towers,666 South Plymouth Ave,Rochester,14608.0,Andrea Cuzenz,NY,5854134069,http://www.foodlinkny.org,Mon 3:30pm-4:45pm,July 6-December 14,M/X,Y,Y,N,Y,43.142509999999994,-77.61894000000001
186,Stoltzfus Farm Stand,1842 State Route 96A,Ovid,14521.0,Reuben Stoltzfus,NY,6078694847,,"Mon-Fri 8am-7pm, Saturday 8am-5pm",May 1-October 31,M,Y,N,N,Y,43.781890000000004,-75.47601
187,Montauk Farmers' Market,742 Montauk Hwy,Montauk,11954.0,Laraine Creegan,NY,6316682355,http://www.facebook.com/montaukfarmersmarket,Thur 9am-2pm,June 11-September 10,M,Y,N,N,Y,41.03436,-71.94424000000001
188,Hudson Valley Farmers Market,227 Pitcher Lane,Red Hook,12571.0,Norman Greig,NY,9144742404,,Saturday 9am-3pm,Year-round,YR,Y,N,N,Y,42.02825,-73.8549
189,Broome Co Regional Sat Farmers' Market,840 Upper Front St.,Binghamton,13905.0,Amy Willis,NY,6077728953,http://www.broomecountyregionalmarket.com,Saturday  9am-1pm,Year-round,YR,Y,Y,Y,Y,42.12921,-75.90609
190,Norwich WINTER Farmers' Market,20 Conkey Avenue,Norwich,13815.0,Drew Piaschyk,NY,6073344928,https://www.facebook.com/NorwichNYFarmersMarket,Wednesday  10am-2pm,December 2-April 28 2021,X/W/P,N,Y,N,Y,42.5272,-75.52481999999999
191,Downtown Buffalo Country Thursday Market,350 Main St. outside btwn Court & Church Streets,Buffalo,14203.0,Taylor Potenza,NY,7168563150,https://buffaloplace.com/play/our-events/#countrymarket,Thu  10am-2:30pm,May 14-October 22,P/M,Y,Y,N,Y,42.8844,-78.8754
192,New Lebanon WINTER Farmers Market,route 20 &22 New Lebanon,New Lebanon,12125.0,Chelsea Vigue,NY,5083173502,https://www.facebook.com/newlebanonfarmersmarket/,every 3rd Sunday 10am-2pm,November 17-May 17,M/X/W/P,N,Y,N,Y,42.464209999999994,-73.39698
193,Veggie Mobile-Renwyck Place,18 4th Ave,Rensselaer,12144.0,Audrey Bridge,NY,5182748685,http://www.capitalroots.org,Thu 11:30am-12pm,Year-round,YR,Y,Y,Y,Y,42.63925,-73.73935999999999
194,NYC Health+Hospitals Farmers' Market-Queens 2,114-02 Guy R Brewer Blvd,Queens,11434.0,Sherly Thomas,NY,7188832134,http://www.nychealthandhospitals.org/queens,Tuesday  8am-4pm,July 21-November 23,M,Y,N,N,Y,40.68851,-73.78588
195,Harvest Home Harlem Hospital Farmers' Market,137th Street and Lennox Avenue,New York,10037.0,Maritza Owens,NY,2128283361,http://www.harvesthomefm.org,Friday  8am-6pm,June 5-November 20,M,Y,Y,N,Y,40.81539,-73.93985
196,Anna House Farm Stand at Belmont Park,2150 Hempstead Turnpike,Elmont,11003.0,Eleanor Poppe,NY,5164285267,http://www.rtcany.org,Tuesday  11am-2pm,July 2-October 27,M,Y,N,N,Y,40.70922,-73.7216
197,Covered Bridge Farm Market,309 Covered Bridge Rd,Unadilla,13849.0,Erin Johnson,NY,9147992078,,Daily 10am-6pm,July 10-October 31,M,Y,N,N,Y,42.33657,-75.28612
198,Curbside Market-Plymouth Gardens,1400 S Plymouth Ave.,Rochester,14611.0,Andrea Cuzenz,NY,5854134069,http://www.foodlinkny.org,Fri 11:30am-1pm,July 10-December 18,M/X,Y,Y,N,Y,43.13192,-77.6339
199,Baltimore Woods WINTER Farmers' Market,4007 Bishop Hill Road,Marcellus,13108.0,Sue Jones,NY,3156731350,https://www.facebook.com/winterfarmersmarketatbaltimorewoods/,2nd Saturday  10am-1pm,November-April,M/X/W/P,N,N,N,Y,42.964884999999995,-76.34460899999999
200,Carthage Farmers' Market,150 Riverside Drive,Carthage,13619.0,Jeanette Turner,NY,3154933590,http://www.carthageny.com,Friday  7am-2pm,May 29-October 9,P/M,Y,N,N,Y,43.977140000000006,-75.61247
201,Poe Park Greenmarket,2580 Grand Concourse,Bronx,10458.0,Siobahn Keys,NY,2127887476,https://www.grownyc.org/,Tuesday  8am-3pm,June 30-November 24,M,Y,Y,N,Y,40.86412,-73.8955
202,Forest Hills Greenmarket,106-28 Queens Blvd.,Queens,11375.0,Siobahn Keys,NY,2127887476,http://www.grownyc.org/greenmarket/queens/forest-hills,Sunday  8am-2pm,Year-Round,YR,Y,Y,N,Y,40.72193,-73.84676
203,Sullivan Fresh Market on the Move-S.Fallsburg,19 Railroad Plaza,South Fallsburg,12779.0,Michelle Proscia,NY,8452926180,http://www.sullivancce.org,Thursday 2:30pm-4:30pm,July 2-October 1,M,Y,Y,N,Y,41.70828,-74.6297
204,Queens County Farm-Jamaica Hospital Farm Stand,134-20 Jamaica Avenue,Richmond Hill,11418.0,Anne Mastrogiacomo,NY,7183473276,http://www.queensfarm.org,Friday 10:30am-3:30pm,July 10-November 6,M,Y,N,N,Y,40.70134,-73.81631
205,Glens Falls Farmers' Market,25 South Street,Glens Falls,12801.0,Richard Sandora,NY,5187920438,http://www.gffma.com,Saturday  8am-12pm,May 2-October 31,P/M,Y,Y,Y,Y,43.3099,-73.64699
206,Dunkirk Farmers' Market,45 Cliffstar Court,Dunkirk,14048.0,Edward Hayes,NY,7163669876,http://www.dunkirktoday.com,Wednesday  9am-2pm,June 10-October 14,M,Y,Y,N,Y,42.484809999999996,-79.32751
207,Lincoln Hospital Tue Greenmarket,East 149th St and Morris Ave,Bronx,10451.0,Siobahn Keys,NY,2127887476,http://www.grownyc.org/greenmarket,Tuesday  8am-3pm,June 30-November 24,M,Y,Y,N,Y,40.81739,-73.92274
208,Brooklyn Borough Hall Saturday Greenmarket,Court St and Montague St,Brooklyn,11201.0,Siobahn Keys,NY,2127887476,http://www.grownyc.org/greenmarket,Saturday 8am-4pm,Year-round,YR,Y,Y,N,Y,40.693740000000005,-73.99043
209,Veggie Mobile-Hometown Health Ctr,1044 State Street,Schenectady,12307.0,Audrey Bridge,NY,5182748685,http://www.capitalroots.org,Mon 2pm-2:45pm,Year-round,YR,Y,Y,Y,Y,42.8014,-73.9278
210,Oneonta WINTER Farmers' Market,196 Main Street,Oneonta,13820.0,Betty Lee,NY,6072671807,http://www.oneontafarmersmarket.com,Saturday  9am-12pm,Nov 2-April 25,X/W/P,N,N,N,Y,42.45397,-75.06188
211,Central NY Sunday Regional Market Authority,2100 Park Street,Syracuse,13208.0,Amanda Vitale,NY,3154228647,http://www.cnyrma.com,Sunday  7am-2pm,Year-round,YR,Y,Y,Y,Y,43.07269,-76.16835
212,JCEO MM-Westville Corners,Rte 37 & 122,Westville,12926.0,Richard LaVigne,NY,5183194028,http://www.jceo.org,Tue 10am-12pm,June 9-October 13,M,Y,Y,N,Y,44.94404,-74.39536
213,West Point/Town of Highlands Farmers' Market,Main St and Cozzens Ave,Highlands,10928.0,Joanne Devereaux,NY,8454462459,http://www.facebook.com/WPTOHfarmersmarket/,Sunday  9am-2pm,June 14-October 28,M,Y,N,N,Y,41.3723,-73.96434
214,The Napolitano Family Farm Stand,3434 Hempstead Turnpike,Levittown,11756.0,Daniel Napolitano,NY,6462834682,http://www.napolitanofamilyfarm.com,Saturday 10am-2pm,June 13-September 26,M,Y,N,N,Y,40.725559999999994,-73.50916
215,Saratoga Farm Stand,1965 Fulton Street,Brooklyn,11233.0,Melony Samuels,NY,7187733551,https://www.tcahnyc.org/,Saturday  9am-2pm,July 6-November 21,M,Y,Y,N,Y,40.678490000000004,-73.9162
216,Pires Farmers' Market,6066 State Highway 12,Norwich,13815.0,Richard Williams,NY,6073342676,,"Mon-Sat  9am-5pm, Sunday  9am-4pm",May 1-November 30,P/M,Y,Y,N,Y,42.54525,-75.52498
217,Richfield Springs Area Thurs Farmers' Market,Main St and Church St,Richfield Springs,13439.0,Ronald Bayzon,NY,3158582703,,Thursday  2pm-6pm,June 25-October 29,M,Y,N,N,Y,42.85341,-74.98506
218,Poverty Acres Farm Stand,129 Hop City Rd.,Ballston Spa,12020.0,Gaynell Bliss,NY,5189353341,,Daily 10am-5pm,July 15-October 15,M,N,N,N,Y,42.95105,-73.91653000000001
219,Yates County Co-op Farm & Craft Market,Main St and Elm St,Penn Yan,14527.0,Rivka Davis,NY,6072435234,http://www.facebook.com/PennYan.Farmers.Market,Saturday  8am-12pm,May 30-September 5,P/M,Y,N,N,Y,42.66095,-77.05365
220,South Buffalo Farmers' Market,"Cazenovia Casino, Cazenovia Park",Buffalo,14220.0,Peggy Shea,NY,7168515169,https://www.facebook.com/SouthBuffaloMarket,Sunday  9am-1pm,June 7-September 27,M,N,N,N,Y,42.847895,-78.80578100000001
221,Peekskill WINTER Farmers' Market,828 Main St,Peekskill,10566.0,Corinna Makris,NY,9144184920,http://www.peekskillfarmersmarket.com,Saturday  10am-2pm,December 7-April 24,X/W/P,N,N,N,Y,41.29141,-73.9231
222,JCEO MM-Methodist Church,3909 NY 374,Lyons Mt.,12952.0,Richard LaVigne,NY,5183194028,http://www.jceo.org,Friday 10am-12 noon,June 12-October 16,M,Y,Y,N,Y,44.73223,-73.91025
223,Hattie Carthan After Church Farmers' Market,49 Van Buren St,Brooklyn,11221.0,David Greaves,NY,2125617327,http://www.hattiecarthancommunitymarket.com,Sunday  1pm-6pm,August 4-November 24,M,Y,N,N,Y,40.69024,-73.94359
224,Flanders Farm Fresh Food Market,655 Flanders Rd,Flanders,11901.0,Nancy Lynott,NY,6317022417,http://www.southamptontownny.gov,Saturday  10am-1pm,July 4-October 17,M,Y,Y,N,Y,40.90952,-72.63662
225,Salisbury Farmers' Market,126 State Route 29A,Salisbury Center,13329.0,Gina Thompson,NY,3154299102,http://www.facebook.com/salisburyfarmersmarket13454/,Friday  9am-1pm,May 22-October 9,P/M,Y,N,N,Y,43.14304,-74.78544000000001
226,The Farmer's Wagon Farm Stand,Grooms Road & Moe Road,Clifton Park,12065.0,Kevin Bowman,NY,5183712042,,Daily 9am-5pm,May 1-October 31,P/M,Y,N,N,Y,42.840340000000005,-73.79385
227,Jamestown Public Market,Cherry and West 2nd St,Jamestown,14701.0,Linnea Carlson,NY,7164836405,http://www.jamestownrenaissance.org,Saturday  10am-2pm,June 6-October 31,M,Y,Y,N,Y,42.09567,-79.24234
228,Village of Hamilton Farmers' Market,Broad St and Payne St,Hamilton,13346.0,Kim Taranto,NY,3158241111,http://www.hamilton-ny.gov,Saturday  8am-1pm,May 9-October 31,P/M,Y,N,N,Y,42.826840000000004,-75.54436
229,Curbside Market-Heritage Gardens,950 Commons Way,Rochester,14623.0,Andrea Cuzenz,NY,5854134069,http://www.foodlinkny.org,Mon 5pm-6pm,July 6-December 14,M/X,Y,Y,N,Y,43.08327,-77.60406
230,Veggie Mobile Sprout-Public Library Sr. Ctr,1501 Broadway,Watervliet,12189.0,Audrey Bridge,NY,5182748685,http://www.capitalroots.org,Thu 2pm-2:45pm,Year-round,YR,Y,Y,Y,Y,42.726290000000006,-73.70008
231,Navarras Farm Market and Greenhouses,3272 Eagle Harbor Road,Albion,14411.0,Amanda Mrzyuka,NY,5855894674,,"Mon-Sat 9am-8pm, Sunday 9am-5pm",Year-Round,YR,N,N,N,Y,43.189409999999995,-78.25421999999999
232,92nd Street Greenmarket,East 92nd St and First Ave,New York,10128.0,Siobahn Keys,NY,2127887476,http://www.grownyc.org/greenmarket,Sunday  9am-4pm,June 21-November 22,M,Y,Y,N,Y,40.78071,-73.94658000000001
233,Dobbs Ferry Farm Stand,Cedar St and Main St,Dobbs Ferry,10522.0,Nancy Chiocchi,NY,9149499403,,Friday  10am-4pm,June 7-November 22,M,Y,N,N,Y,41.01628,-73.87365
234,McGolrick Park Farmers' Market,130 Russell Street,Brooklyn,11222.0,Miriam Haas,NY,9149234837,http://www.downtoearthmarkets.com,Sunday  10am-3pm,May17-December 20,P/M/X,Y,Y,N,Y,40.72483,-73.94431999999999
235,Bowman Farms Farm stand,11259 Gowanda State Rd.,North Collins,14111.0,Susan Bowman,NY,7163372695,http://www.bowmanfarmsinc.com,Daily  9am-5pm,June-October,M,Y,Y,N,Y,42.57506,-78.93838000000001
236,LeRoy Farmers' Market,Trigon Park,Le Roy,14482.0,Mary Margaret Ripley,NY,5852972441,http://www.leroyfarmersmarket.wordpress.com,Saturday  9am-12:30pm,June 13-October 3,M,Y,N,N,Y,42.97756,-77.98592
237,Curbside Market-Seneca Towers,200 Seth Green St,Rochester,14621.0,Andrea Cuzenz,NY,5854134069,http://www.foodlinkny.org,Mon 1:15pm-2:30pm,July 6-December 14,M/X,Y,Y,N,Y,43.1904,-77.61943000000001
238,Trumansburg Farmers' Market,69-71 W Main St.,Trumansburg,14886.0,Victoria Badalmenti,NY,6073876501,http://www.tburgfarmersmarket.com,Wednesday  4pm-7pm,May 6-October 28,P/M,Y,N,N,Y,42.543490000000006,-76.6675
239,Curbside Market-400 Towers,400 East Main St.,Batavia,14020.0,Andrea Cuzenz,NY,5854134069,http://www.foodlinkny.org,Mon 12:30pm-1:30pm,July 6-December 14,M/X,Y,Y,N,Y,42.996590000000005,-78.17634
240,Veggie Mobile Sprout-Mayor John Warden Apts,85 Aiken Ave,Rensselaer,12144.0,Audrey Bridge,NY,5182748685,http://www.capitalroots.org,Tue 2:15pm-3pm,Year-round,YR,Y,Y,Y,Y,42.63326,-73.73991
241,North Tonawanda City Tue Farmers' Market,310 Robinson Road,North Tonawanda,14120.0,Matt Parrish,NY,7166958555,http://www.northtonawanda.org/Departments/City%20Market.htm,Tuesday  7am-1pm,Year-round,YR,Y,N,N,Y,43.033770000000004,-78.87021
242,Rochester Public Market -Thursday,280 North Union St.,Rochester,14609.0,Cindy De Coste,NY,5854286907,http://www.cityofrochester.gov/publicmarket,Thursday  6am-1pm,Year-round,YR,Y,Y,Y,Y,43.1657,-77.59016
243,Clarence Hollow Farmers' Market,10717 Main St,Clarence,14031.0,Cheryl Anthony,NY,7167591075,http://www.clarencefarmersmarket.com,Saturday  8am-1pm,June 6-October 31,M,Y,N,N,Y,42.9808,-78.58904
244,JCEO MM-Trails at Malone,166 Falling Leave Dr.,Malone,12953.0,Richard LaVigne,NY,5183194028,http://www.jceo.org,Wednesday 10am-12pm,June 10-October 14,M,Y,Y,N,Y,44.83505,-74.2986
245,Potsdam Farmers' Market,Main St and Union St,Potsdam,13676.0,Jennifer McAvoy,NY,3155282454,http://www.facebook.com/thepotsdamfarmersmarket,Saturday  9am-2pm,May 9-October31,P/M,Y,Y,N,Y,44.66865,-74.98493
246,Goshen Farmers' Market,Main St and Church St,Goshen,10924.0,Chris Wilson,NY,8452947741,http://www.goshennychamber.com,Friday  10am-5pm,May 22-October 30,P/M,Y,N,N,Y,41.402190000000004,-74.32408000000001
247,Red Hook Farm Stand I,560 Columbia St,Brooklyn,11231.0,Saara Nafici,NY,3475136774,http://www.added-value.org/farmers-market,Saturday  10am-3pm,June 20-November 21,M,Y,Y,N,Y,40.67237,-74.00884
248,Common Roots Urban Farm Stand,309 Peckham St,Buffalo,14206.0,Terra Dumas,NY,7162929109,http://www.commonrootsurbanfarm.com,Saturday 11am-3pm,June 6-October 3,M,Y,Y,N,Y,42.88783,-78.84284
249,Flatbush Junction  GrowNYC Farm Stand,Flatbush Ave and Nostrand Ave,Brooklyn,11210.0,Siobahn Keys,NY,2127887476,https://www.grownyc.org/farmstands,Saturday  9am-2pm,July 18-November 21,M,Y,Y,N,Y,40.63286,-73.9477
250,Kensington  GrowNYC Farm Stand,Fort Hamilton Pkwy and East 5th St,Brooklyn,11218.0,Siobahn Keys,NY,2127887476,https://www.grownyc.org/farmstands,Saturday  8:30am-3pm,July 18-November 21,M,Y,Y,N,Y,40.64917,-73.97659
251,Callicoon Farmers' Market,A Dorrer Drive,Callicoon,12723.0,Eugene Thalmann,NY,6313327948,http://www.callicoonfarmersmarket.org,Sunday  11am-2pm,March 22-November 29,P/M,Y,N,N,Y,41.76559,-75.05797
252,South Wedge Farmers' Market,151 Mt. Hope Ave,Rochester,14620.0,Joan Brandenburg,NY,5852561740,http://www.swfm.org,Thursday  4pm-7pm,June 18-September 18,M,N,Y,N,Y,43.1464,-77.60882
253,Downtown Syracuse Farmers' Market,Clinton St and Water St,Syracuse,13202.0,Charles McFadden,NY,3154228284,http://www.downtownsyracuse.com,Tuesday  7am-3pm,June 6-October 13,M,Y,Y,N,Y,43.050540000000005,-76.15354
254,Seaford Farmers' Market,Sunrise Highway and Washington St.,Seaford,11783.0,Ethel Terry,NY,6313233653,http://www.longislandgrowersmarket.com,Saturday  7am-12pm,June 6-November 21,M,Y,N,N,Y,40.67572,-73.48657
255,White Plains (International) Wed Farmers' Market,125 Court St,White Plains,10601.0,Metin Erinc,NY,4845603606,http://www.whiteplainsfarmersmarket.com,Wednesday  9am-2pm,May27-November 25,P/M,Y,N,N,Y,41.02944,-73.76659000000001
256,Prays Family Farm Stand-Plattsburgh,605 State Route 3,Plattsburgh,12944.0,Darcy Pray,NY,5188347437,,Daily 9am-4pm,Year-round,YR,Y,N,N,Y,44.6948,-73.5069
257,Veggie Van MM-JD Senior Center,1201 Hyde Park,Niagara Falls,14301.0,Jen Regan,NY,7162990905,http://www.facebook.com/CHPNiagara/?ref=hl,Thu 11:30am-12:30 pm,June 1-October 31,M,Y,Y,N,Y,43.099920000000004,-79.02631
258,Saratoga WINTER Farmers' Market,3065 NY-50,Saratoga Springs,12866.0,Justine Denison,NY,5186642510,http://www.saratogafarmersmarket.org/saratoga-farmers-market/,Saturday  9:30am-1:30pm,"November 2-May 16,2020",M/X/W/P,N,N,N,Y,43.064640000000004,-73.79044
259,Veggie Mobile-Thurlow Terrace,2 Thurlow Terrace,Albany,12203.0,Audrey Bridge,NY,5182748685,http://www.capitalroots.org,Wed 12pm-1pm,Year-round,YR,Y,Y,Y,Y,42.65998,-73.77275999999999
260,Remsen Farmers' Market,10613 Depot Street,Remsen,13438.0,Erin Corrigan,NY,3157902435,,Saturday 9am-1pm,June 20-October 17,M,N,N,N,Y,43.32853,-75.18683
261,Tribeca Greenmarket Saturday,Greenwich St and Chambers St,New York,10023.0,Siobahn Keys,NY,2127887476,http://www.grownyc.org/greenmarket/manhattan/tribeca-sa,Saturday  8am-3pm,Year-round,YR,Y,Y,N,Y,40.7163,-74.01097
262,Woodhull Hospital GrowNYC Farm Stand,Marcus Garvey Boulevard and Broadway,Brooklyn,11206.0,Siobahn Keys,NY,2127887476,https://www.grownyc.org/farmstands,Wednesday  9am-2pm,July 15-November 26,M,Y,Y,N,Y,40.70029,-73.94111
263,Skaeneateles Farmer's Market-Saturday,1 East Austin Street,Pavilion,13152.0,Sue Murphy,NY,3157279320,https://www.townofskaneateles.com/,Saturday 10am-1pm,May 23-October 17,P/M,Y,N,N,Y,42.95091,-76.43045
264,4th Ave. Sunset Park Greenmarket,4th Ave and 60th St,Brooklyn,11220.0,Siobahn Keys,NY,2127887476,http://www.grownyc.org/greenmarket,Saturday  8am-3pm,July 11-November 21,M,Y,Y,N,Y,40.640809999999995,-74.01836
265,Emmi's Farm Market-Baldwinsville,1482 West Genesee Rd.,Baldwinsville,13027.0,Anthony Emmi,NY,3156357529,http://www.emmifarms.com,"Mon-Sat  10am-6pm, Sunday  10am-3pm",June 10-October 15,M,Y,N,N,Y,43.16899,-76.40302
266,Central NY Saturday Regional Market Authority,2100 Park Street,Syracuse,13208.0,Amanda Vitale,NY,3154228647,http://www.cnyrma.com,Saturday  7am-2pm,Year-round,YR,Y,Y,Y,Y,43.07269,-76.16835
267,Veggie Mobile-Creighton Storey Homes,158 3rd Street,Albany,12202.0,Audrey Bridge,NY,5182748685,http://www.capitalroots.org,Thu 5pm-5:45pm,Year-round,YR,Y,Y,Y,Y,42.66205,-73.7578
268,Montgomery Farmers' Market,110 Bracken Rd,Town of Montgomery,12549.0,Randi Greene,NY,8452872833,http://facebook.com/tomfarmmarket,Tuesday 9am-2pm,July 7-October 27,M,Y,N,N,Y,41.52115,-74.20015
269,Victor Farmers' Market,60 East Main St,Victor,14564.0,Roseanne Turner-Adams,NY,5859243311,http://www.victorny.org,Wednesday  3pm-6pm,June 3-October 28,M,Y,N,N,Y,42.98236,-77.4088
270,Rye Farmers' Market,9 Theodore Fremd Ave,Rye,10580.0,Miriam Haas,NY,9149234837,http://www.downtoearthmarkets.com,Sunday  8:30am-2pm,May 24-December 6,P/M/X,Y,Y,Y,Y,40.98485,-73.68464
271,Wagner Farms Farm Stand,5841 Old Oneida Rd,Rome,13440.0,Ronald Wagner,NY,3153395182,http://wagnerfarmsny.com/,Daily  10am-6pm,Year-round,YR,Y,N,N,Y,43.1805,-75.50086
272,Perez Farm Stand-Monsey,40 Robert Pitt Dr,Monsey,10952.0,Javier or Estella Perez,NY,8453810399,,Sunday 10am-3pm,June 21-October 25,M,Y,N,N,Y,41.111290000000004,-74.06488
273,Curbside Market-Upper Square Falls,396 Hudson Ave,Rochester,14605.0,Andrea Cuzenz,NY,5854134069,http://www.foodlinkny.org,Sat 1:45pm-2:45pm,July 11-December 19,M/X,Y,Y,N,Y,43.17109,-77.60063000000001
274,Akwesasne Farmers' Market,30 Margaret Terrance Memorial Way,Akwesasne,13655.0,Kim McElwain,NY,5183583141,,"Thursday 11am-2pm, Saturday 10am-1pm",June 25-October 3,M,Y,N,N,Y,44.9867,-74.6755
275,Corning Farmers' Market,Centennial Park East Tioga Ave,Corning,14830.0,Matthew Luma,NY,6079376292,http://www.gafferdistrict.com,Thursday  10am-3pm,June 4-October 29,M,Y,N,N,Y,42.1443,-77.05339000000001
276,Sunnyside Greenmarket,Skillman Ave and 42nd St,Sunnyside,11104.0,Siobahn Keys,NY,2127887476,http://www.grownyc.org/greenmarket/queens/sunnyside,Saturday  8am-2pm,Year-round,YR,Y,Y,N,Y,40.74694,-73.92139
277,Beacon Farmers' Market,Veteran's Place,Beacon,12508.0,Sember Weinman,NY,8452314424,http://www.beaconfarmersmarket.org,Sunday  10am-3pm,May 3-November 16,P/M,Y,Y,Y,Y,41.50377,-73.96848
278,Mamakating Farmers Market,2948 Route 209 Wurtsboro,Wurtsboro,12790.0,Fred Harding,NY,8458202932,http://www.visitmamakating.org,Friday 4pm-7pm,June 5-September 4,M,Y,N,N,Y,41.56637,-74.49704
279,Rockaway Youth Task Force Farm Stand,310 Beach 58th Street,Far Rockaway,11691.0,Tamera Jacobs,NY,7186730263,http://www.rytf.org,Saturday  9am-3pm,July 6-November 21,M,Y,Y,N,Y,40.59453,-73.78803
280,Veggie Mobile Sprout-Burns Apts,720 Federal Street,Troy,12180.0,Audrey Bridge,NY,5182748685,http://www.capitalroots.org,Thu  12:30pm-1:15pm,Year-round,YR,Y,Y,Y,Y,42.733148,-73.684555
281,Cottage Lawn Farmers' Market,435 Main St.,Oneida,13421.0,Colleen Donahue,NY,3153634136,http://www.mchsfarmersmarket.org/,Tuesday  3pm-7pm,May 26-September 1,P/M,Y,N,N,Y,43.08719,-75.64705
282,Bushgardens Farm Stand,10371 NYS Route 26,Carthage,13619.0,Chris Bush,NY,3157836745,,"Daily  6am-6pm, Except Wed 3pm-6pm",May 15-November 1,M,Y,N,N,Y,43.919540000000005,-75.58686
283,Copake Hillsdale Farmers' Market,9140 Route 22,Hillsdale,12529.0,Diane Creed,NY,5183251430,http://www.copakehillsdalefarmersmarket.com,Saturday  9am-1pm,May 23-October 31,P/M/X,Y,Y,N,Y,42.170770000000005,-73.51771
284,Kingston WINTER Farmers' Market,272 Wall Street,Kingston,12401.0,Laura Crimmins,NY,6462624672,http://www.kingstonfarmersmarket.org,Alt Saturdays  10am-2pm,December 7-April 25,X/W/P,N,Y,N,Y,41.93286,-74.01884
285,Fredonia WINTER Farmers' Market,321 East Main St. (Rte 20),Fredonia,14063.0,Rosemary Joy,NY,7164107313,http://www.facebook.com/FredoniaFarmersMarket,Saturday 10am-1pm,"Nov 7-May 8,2021",M/X/W/P,Y,Y,N,Y,42.44764,-79.315
286,City of Hudson Farmers' Market,Columbia St and North 6th St,Hudson,12534.0,Virginia Ambrose,NY,5188212453,http://www.hudsonfarmersmarketny.com,Saturday  9am-1pm,April 26-November 21,P/M,Y,Y,N,Y,42.24866,-73.78369
287,Gardner's Gardens Farm Stand,14350 Northwood Dr.,Albion,14411.0,Shauna Gardner,NY,5855902437,http://www.facebook.com/gardnersheirloom/,Monday 3pm-4:30pm,June 1-October 26,M,Y,N,N,Y,43.25845,-78.19669
288,Hamburg Farmers' Market,45 Church St.,Hamburg,14075.0,Jamie Decker,NY,7166497917,http://www.southtownsregionalchamber.org/explore-hamburg/farmers-market,Saturday  7:30am-1pm,May 2-October 31,P/M,Y,N,N,Y,42.716770000000004,-78.82994000000001
289,Veggie Mobile-South Mall Towers,101 South Pearl Street,Albany,12207.0,Audrey Bridge,NY,5182748685,http://www.capitalroots.org,Fri  11am-12:15pm,Year-round,YR,Y,Y,Y,Y,42.6465,-73.75482
290,Lincoln Hospital Fri Greenmarket,East 149th St and Morris Ave,Bronx,10451.0,Siobahn Keys,NY,2127887476,http://www.grownyc.org/greenmarket,Friday  8am-3pm,Year-round,YR,Y,Y,N,Y,40.8174,-73.92276
291,Eastchester GrowNYC Farm Stand,E 229th St at Schieffelin Ave,Bronx,10466.0,Siobahn Keys,NY,2127887476,http://www.grownyc.org,Thursday 9:30am-3pm,July 7-November 20,M,Y,Y,N,Y,40.885040000000004,-73.84314
292,Rocky Point Farmers' & Artisan Market,115 Prince Road,Rocky Point,11778.0,Virginia Heslin,NY,6317445787,http://www.rockypointfarmersmarket.org;www.rockypointfarmersmarket.wordpress.com,Sunday  8am-1pm,May 31-November 22,P/M,Y,N,N,Y,40.94927,-72.92390999999999
293,Ithaca Farmers' Market (East Hill Wed),380 Pine Tree Road,Ithaca,14850.0,Kelly Sauve,NY,6072737109,http://www.ithacamarket.com,Wednesday  4pm-7pm,April 5-October 28,P/M,Y,N,N,Y,42.4385,-76.46559
294,Seneca Falls Farmers' Market,Water St and Bridge St,Seneca Falls,13148.0,Gregg Zellers,NY,3153384359,http://www.senecamarket.com,Tuesday  3pm-7pm,June 16-October 13,M,Y,Y,N,Y,42.91008,-76.80086
295,Warsaw Farm Stand,2444 N. Main St.,Warsaw,14569.0,Patricia Reiter,NY,5855911358,,Thursday  11am-3pm,July 9-October 1,M,Y,N,N,Y,42.74796,-78.13257
296,Mott Haven Farm Stand,545 East 142nd Street,Bronx,10454.0,Rachel Gill,NY,7185083156,http://www.bronxworks.org,Monday  9am-3pm,July 6-November 16,M,N,N,N,Y,40.80979,-73.91585
297,Springville Farmers' Market,341 West Main St,Springville,14141.0,Donna Goldhawk,NY,7165600198,http://www.facebook.com/GENTNERSCOMMISSIONMARKET/,"Wednesday  7am-3pm, winter hours change",Year-round,YR,Y,N,N,Y,42.50906,-78.67989
298,Whittier Fruit Farm Stand,219 Whittier Road,Rochester,14624.0,Judy Russell,NY,5857481898,http://www.whittierfruitfarm.com,Daily 12pm-4pm,July 15-November 6,M,Y,N,N,Y,43.14905,-77.77736999999999
299,Schenectady Greenmarket,Franklin St and Jay St,Schenectady,12305.0,Cheryl Whilby,NY,5189860318,http://www.schenectadygreenmarket.org,Sunday  10am-2pm,May 3-October 25,P/M,Y,Y,Y,Y,42.81372,-73.94015
300,Thera Farms Farm Stand,1725 Brentwood Road,Brentwood,11717.0,Teddy Bolkas,NY,6314785229,https://www.facebook.com/TheraFarms/,Daily 9am-5pm,June 1-October 1,M,Y,N,N,Y,40.77235,-73.24614
301,Watkins Glen Farmers' Market,Fifth St and Porter St,Watkins Glen,14891.0,Jylle Benson-Gauss,NY,6075462351,http://www.facebook.com/Watkins-Glen-Farmers-Market-132465933495746/,Friday  3pm-7pm,May 26-October 30,P/M,Y,N,N,Y,42.380959999999995,-76.86954
302,Hudson Valley Regional Farmers' Market,15 Mt Ebo Drive,Brewster,10509.0,Melissa Kamin,NY,8458789078,http://www.hudsonvalleyfarmersmarket.org,Sunday  10am-2pm,Year-round,YR,N,N,N,Y,41.43416,-73.57263
303,Newburgh Mall Farmers' Market,1401 Route 300,Newburgh,12550.0,Debbie Gaito,NY,8455641400,http://www.newburghmall.com,Saturday  10am-2pm,July 18-October 17,M,Y,N,N,Y,41.51758,-74.0714
304,Veggie Mobile Sprout-St. Sophia/Holy Wisdom,440 Whitehall Road,Albany,12208.0,Audrey Bridge,NY,5182748685,http://www.capitalroots.org,Wed 12:15pm-12:35pm,Year-round,YR,Y,Y,Y,Y,42.652440000000006,-73.81416
305,Norwood GrowNYC Farm Stand,Dekalb Ave. and East Gun Hill Rd.,Bronx,10467.0,Siobahn Keys,NY,2127887476,https://www.grownyc.org/farmstands,Thursday  8:30am-4pm,Year-round,YR,Y,Y,N,Y,40.88223,-73.88048
306,Rulfs Orchard Farm Stand,531 Bear Swamp Road,Peru,12972.0,Shannon Wilkins,NY,5186438636,http://www.rulfsorchard.com,Daily 6am-6pm,June-November,M,Y,Y,N,Y,44.5786,-73.49804
307,Obercreek Farm Stand,87 New Hamburg Road,Wappingers Falls,12590.0,Nina Doig,NY,8452980888,http://www.obercreekfarm.com,"Wed-Fri 10am-6pm, Sat-Sun 10am-5pm",Year-round,YR,Y,Y,N,Y,41.58378,-73.93705
308,Curbside Market-Rochester View Apartments,4365 W Henrietta Road,Henrietta,14467.0,Andrea Cuzenz,NY,5854134069,http://www.foodlinkny.org,Mon 3:15pm-4:15pm,July 6-December 14,M/X,Y,Y,N,Y,43.06563,-77.64833
309,Ballston Spa Thursday Farmers' Market,"Wiswall Park, Front Street",Ballston Spa,12020.0,Ellen Mottola,NY,5188852772,http://www.ballston.org/category/farmers-market/,Thursday 3pm-6pm,June 20-September 26,M,N,N,N,Y,43.00241,-73.85154
310,Barber Family Farm Stand,3617 State Route 30,Fulton,12122.0,Sarah Hooper,NY,5188275454,http://www.barbersfarm.com,"Daily 9am-5:30pm, (January-May, Sat/Sun 9am-3pm)",Year-round,YR,Y,Y,N,Y,42.58123,-74.39189
311,Curbside Market-Danforth Towers,140 West Avenue,Rochester,14611.0,Andrea Cuzenz,NY,5854134069,http://www.foodlinkny.org,Thu  11:45am-12:45pm,July 9-December 17,M/X,Y,Y,N,Y,43.15038,-77.64166
312,Guppy's Berry Farm Farm Stand,512 County Route 26,West Monroe,13617.0,Elaine Guppy,NY,3156257920,http://www.guppysberryfarmllc.com,"Wed-Fri  Sun  9am-2pm, Saturday  9am-4pm",July 13-September 30,M,Y,N,N,Y,43.35052,-76.03094
313,Bensonhurst Greenmarket,8100 18th Ave,Brooklyn,11214.0,Siobahn Keys,NY,2127887476,http://www.grownyc.org/greenmarket,Sunday  9am-4pm,May 31-November 29,M,Y,Y,N,Y,40.60958,-73.99944
314,Curbside Market-Lake Tower,321 Lake Ave.,Rochester,14608.0,Andrea Cuzenz,NY,5854134069,http://www.foodlinkny.org,Tue 11:45pm-1pm,July 7-December 15,M/X,Y,Y,N,Y,43.17054,-77.62751
315,Harvest Home Lenox Ave. Farmers' Market,150 Lenox Avenue,New York,10027.0,Maritza Owens,NY,2128283361,http://www.harvesthomefm.org,Saturday  8am-4pm,June 27-November 21,M,Y,Y,N,Y,40.80295,-73.9489
316,BronxWorks Farm Stand,1130 Grand Concourse,Bronx,10456.0,Rachel Gill,NY,7185083156,,Thursday  10am-4pm,July 9-November 19,M,N,N,N,Y,40.83256,-73.9192
317,TaSH Farmers' Market,Patriots Park Route 9,Sleepy Hollow,10591.0,Linda Eder,NY,9144717437,http://www.tashfarmersmarket.org,Saturday  8:30am-2pm,May 23-November 21,P/M,Y,Y,N,Y,41.08525,-73.85924
318,Dave's Veggies Farm Market,5178 NY-41,Homer,13077.0,David Root,NY,6077494955,http://www.facebook.com/daves.veggies,Daily  12pm-6pm,May 10-October 31,P/M,Y,Y,N,Y,42.659118,-76.20304200000001
319,Hornell Farmers' Market,1 Steuben Sq,Hornell,14843.0,Valorie Whitehall,NY,6073249786,http://www.facebook.com/hornellfarmersmarket,Saturday 10am-7pm,May 30-September 26,P/M,Y,N,N,Y,42.32902,-77.66062
320,Altamont Orchards Farm Stand,6654 Dunnsville Road,Altamont,12009.0,Jim Abbruzzese,NY,5188616515,http://www.altamontorchards.com,"Daily  9:30am-5pm, hours change Nov 28",Sept 4-December 24,M/X,Y,N,N,Y,42.722559999999994,-74.01493
321,Painted Post Farmers' Market,277 Steuben Street,Painted Post,14870.0,Cathy Halm,NY,6075278730,http://www.facebook.com/PaintedPostFarmersMarket/,Saturday  10am-2pm,May 2-October 31,P/M,Y,N,N,Y,42.16134,-77.0919
322,Curbside Market-DePaul Ridgeview,109 Marburger Street,Rochester,14621.0,Andrea Cuzenz,NY,5854134069,http://www.foodlinkny.org,Wed 4:15pm-5:15pm,July 8-December 16,M/X,Y,Y,N,Y,43.19375,-77.6078
323,MAP Mobile Market-Hispanics United,254 Virginia St.,Buffalo,14201.0,Danielle Rovillo,NY,7168825327,http://www.mass-ave.org,Thursday 11am-1pm,June 19-December 31,M/X,Y,Y,N,Y,42.89508,-78.88197
324,Urban Oasis Farmers' Market,681 Clarkson Ave,Brooklyn,11203.0,Michelle Almonte,NY,7182217132,,Wed  2pm-5:30pm,June 26-November 4,M,Y,N,N,Y,40.656209999999994,-73.93741
325,The Old Farm Market Farm Stand,80 Gates Greece Townline Rd,Rochester,14606.0,Brook DeConinck,NY,5853634785,https://www.facebook.com/OldFarmMarket/,"Mon-Fri 10am-5pm, Sat/Sun 9am-2pm",July 1-October 1,M,Y,N,N,Y,43.179359999999996,-77.7086
326,Stoneledge Farm Stand,145 Garcia Lane,Leeds,12451.0,Candice Kavakos,NY,5182429286,http://www.stoneledge.farm,Sat/Sun 9am-3pm,June 6-October 11,M,Y,N,N,Y,42.27878,-73.95215999999999
327,Cypress Hills  GrowNYC Farm Stand,Fulton St. and Logan St.,Brooklyn,11208.0,Siobahn Keys,NY,2127887476,https://www.grownyc.org/farmstands,Friday  10am-5pm,July 17-November 20,M,Y,Y,N,Y,40.68206,-73.87788
328,Norwich Farmers' Market,North Broad St. and Main St.,Norwich,13815.0,Sandy Pierce,NY,6073344928,http://www.facebook.com/NorwichNYFarmersMarket,Wednesday  10am-2pm,Year-round,YR,Y,Y,N,Y,42.53055,-75.52365
329,Domino Park Greenmarket,15 River St,Brooklyn,11211.0,Siobahn Keys,NY,2127887476,https://www.grownyc.org,Sunday 9am-3pm,July 12-November 22,M,Y,N,N,Y,40.71655,-73.96656
330,Narrowsburg Farmers Market,7 Eric Ave,Narrowsburg,12764.0,Greg Swartz,NY,5709820050,,Saturday 10am-1pm,May 16-October 31,M,Y,N,N,Y,41.6052,-75.06393
331,Arlington Farmers' Market,123 Raymond Ave,Poughkeepsie,12603.0,Bob Legacy,NY,8454712863,http://www.arlingtonhasit.org,Thursday  3pm-7pm,May 28-November 19,P/M,Y,N,N,Y,41.68187,-73.89636
332,Belmont Farmers' Market,5429 NYS Route 19 N,Belmont,14813.0,Debra Wagoner,NY,5856108836,,Thursday  11am-5pm,June 4-October 8,P/M,Y,N,N,Y,42.2356,-78.05212
333,Hattie Carthan Community Farmers' Market,365 Clifton Pl,Brooklyn,11216.0,David Greaves,NY,2125617327,http://www.hattiecarthancommunitymarket.com,Saturday  9am-3pm,July 11-November 21,M,Y,Y,N,Y,40.68965,-73.94879
334,The Apple Shed Farm Stand,3391 Fairville Maple Ridge Rd,Newark,14513.0,Barbara Wells,NY,3153316294,http://www.theappleshed.com,Daily 9am-5pm,June 12-December 22,M/X,Y,N,N,Y,43.129670000000004,-77.09774
335,The Gade Farm Farm Stand,2479 Western Avenue,Altamont,12009.0,Amy Castillo,NY,5188698019,http://www.gadefarm.com,"Sunday  9am-5pm, Mon-Sat 9am-6pm",March 20-December 24,P/M/X,Y,N,N,Y,42.71055,-73.92593000000001
336,Hempstead Community Farm Stand,99 Nichols Court,Hempstead,11550.0,Jacob Dixon,NY,5165442955,http://www.choiceforall.org,Saturday  11am-4pm,Sept 5-October 24,M,Y,Y,N,Y,40.71148,-73.62850999999999
337,Brighton WINTER Farmers' Market,220 Idlewood Road,Rochester,14618.0,Sue Gardner-Smith,NY,5852698918,http://www.brightonfarmersmarket.org,Sunday  1pm-4pm,"Dec 6-May 2, 2021",X/W/P,N,Y,N,Y,43.11275,-77.56809
338,Clinton Bailey Wed Farmers' Market,Bailey Ave and Clinton St,Buffalo,14206.0,Sharon Baldi,NY,7162080003,http://www.clintonbaileymarket.com,Wednesday 7am-6pm,May 1-October 31,P/M,N,Y,N,Y,42.87206,-78.81997
339,Harvest Home Mt. Eden Farmers' Market,Mt Eden Pkwy and Morris Ave,Bronx,10457.0,Maritza Owens,NY,2128283361,http://www.harvesthomefm.org,Tue/Thu  8am-4pm,June 9-November 24,M,Y,Y,N,Y,40.84305,-73.90947
340,East New York Farmers' Market I,613 New Lots Ave,Brooklyn,11207.0,Ana Aguirre,NY,7186497979,http://www.eastnewyorkfarms.org,Saturday  9am-3pm,June 27-November 14,M,Y,Y,N,Y,40.6647,-73.88659
341,Share the Bounty Farm Stand,3360 Route 343,Amenia,12501.0,Edward Frederick,NY,8452067526,,Tuesday  9am-1pm,June 30-October 30,M,Y,N,N,Y,41.85035,-73.55065
342,Graham Avenue Farmers' Market,Graham Ave and Cook St,Brooklyn,11206.0,Betty Cooney,NY,7183876643,http://www.grahamavenuebid.net,Saturday  9am-5pm,July 11-October 31,M,Y,Y,N,Y,40.70235,-73.94238
343,Auburn Tue Farmers' Co-op Market,96 State Street,Auburn,13021.0,Mark Soper,NY,3157048609,http://www.auburnfarmerscoopmarketinc.com,Tue 7am-2pm,June 2-October 27,M,Y,Y,N,Y,42.93401,-76.57007
344,Newfane Methodist Farmers' Market,2699 Main St.,Newfane,14108.0,Amy Luckman,NY,7167787011,,Wed  4:30pm-7pm,July 1-October 14,M,Y,N,N,Y,43.28365,-78.70879000000001
345,Veggie Van MM-Carolyn's House YWCA,542 6th,Niagara Falls,14301.0,Jen Regan,NY,7162990905,,Thursday 1pm-2pm,June 1-October 31,M,Y,Y,N,Y,43.092240000000004,-79.05563000000001
346,Brownsville Pitkin  GrowNYC Farm Stand,Pitkin Avenue and Thomas Boyland Street,Brooklyn,11212.0,Siobahn Keys,NY,2127887476,https://www.grownyc.org/farmstands,Saturday  9am-2pm,July 18-November 21,M,Y,Y,N,Y,40.669259999999994,-73.91356
347,Millerton Farmers' Market,6 Dutchess Ave.,Millerton,12546.0,Christine Sergent,NY,5187894259,http://www.millertonfarmersmarket.org/,Saturday 10am-2pm,Year-round,YR,Y,Y,N,Y,41.9543,-73.50976999999999
348,Abingdon Square Greenmarket,Hudson St and W 12 St,New York,10014.0,Siobahn Keys,NY,2127887476,http://www.grownyc.org/greenmarket/manhattan/abingdon-square,Saturday  8am-2pm,Year-round,YR,Y,Y,N,Y,40.73755,-74.00568
349,Painted Post WINTER Market,227 Steuben Street,Painted Post,14870.0,Cathy Halm,NY,6075278730,http://www.facebook.com/paintedpostfarmersmarket,1st and 3rd Sat  11am-3pm,"November 2-March 21,2020",M/X/W/P,N,N,N,Y,42.16067,-77.09283
350,Martin's Farm Fresh Farm Stand,820 State Route 66,Hudson,12534.0,Hannah Martin,NY,5188288781,,Mon-Sat  9am-5pm,June 1-November 1,M,Y,N,N,Y,42.273179999999996,-73.72225999999999
351,Bowman Orchards Farm Stand,141 Sugarhill Road,Rexford,12148.0,Kevin Bowman,NY,5183712042,http://www.bowmanorchards.com,Daily 9am-5pm,May 1-December 23,P/M/X,Y,N,N,Y,42.81576,-73.83953000000001
352,Syracuse Farm Fresh Mobile Market,500 West Newell Street,Syracuse,13205.0,Diane Turner,NY,3153450600,https://ssinterfaithcdc.org/projects/farm-fresh-mobile-market/,"Contact market for locations & times, 315-345-0600",Year-round,YR,Y,Y,N,Y,43.016878000000005,-76.15371400000001
353,Ithaca Farmers' Market (Steamboat Sun),545 Third Street,Ithaca,14850.0,Kelly Sauve,NY,6072737109,http://www.ithacamarket.com,Sunday  10am-3pm,April 5-December 22,P/M/X,Y,N,N,Y,42.44958,-76.50782
354,Veggie Mobile Sprout-Mechanicville Sr Center,178 North Main Street,Mechanicville,12118.0,Audrey Bridge,NY,5182748685,http://www.capitalroots.org,Fri 2pm-2:45pm,Year-round,YR,Y,Y,Y,Y,42.90829,-73.68374
355,Curbside Market-Carriage Factory Apts,33 Litchfield Street,Rochester,14608.0,Andrea Cuzenz,NY,5854134069,http://www.foodlinkny.org,Tue 2:30pm-3:45pm,July 7-December 15,M/X,Y,Y,N,Y,43.15396,-77.62575
356,Roberts Farm Market,11170 Maple Ridge Rd.,Medina,14103.0,Margaret Roberts,NY,7165601200,http://www.robertsfarmmarket.com,"Mon-Sat 8am-6pm, Jan-Mar: Tue-Sat 9a-5p",Year-round,YR,Y,N,N,Y,43.206790000000005,-78.40098
357,Bolton Landing Farmers' Market,5 Cross Street,Bolton,12814.0,Penelope Jewell,NY,5184809118,http://www.boltonlandingfarmersmarket.com,Friday  9am-2pm,June 26-September 4,M,Y,N,N,Y,43.55744,-73.65727
358,Plunkett Farms Farm Stand,2180 Tower Road,Cortland,13045.0,John and Carla Plunkett,NY,6077530001,,Daily 9am-5pm,July 1-October 31,M,Y,N,N,Y,42.55495,-76.13123
359,Kauneonga Lake Farmers' Market,3594 State Route 55,Kauneonga Lake,12749.0,Chris Cunningham,NY,8455834350,http://www.kauneongalakefarmersmarket.org,Saturday  10am-1pm,June 27-September 5,M,Y,N,N,Y,41.68587,-74.83131999999999
360,Fredonia Farmers' Market,11 Church St,Fredonia,14063.0,Thomas Degolier,NY,7166802104,http://www.facebook.com/FredoniaFarmersMarket,Saturday  9am-1pm,May 16-October 31,P/M,Y,Y,N,Y,42.44064,-79.33235
361,Debrucque's Produce Stand,3392 Seneca Turnpike,Canastota,13032.0,Gary J. Debrucque,NY,3153801015,,"Mon-Fri  10am-5pm, Sat/Sun  9am-3pm",June 1-October 31,M,Y,N,N,Y,43.06975,-75.75169
362,La Familia Verde Farmers' Market,East Tremont Ave and Arthur Ave,Bronx,10457.0,Aleyna Rodriguez,NY,7185831765,http://www.lafamiliaverde.org,Tuesday  8am-2pm,July 7-November 17,M,Y,N,N,Y,40.84643,-73.89334000000001
363,Seeds in the Middle Farm Stand-Flatbush,2500 Nostrand Ave,Brooklyn,11210.0,Nancie Katz,NY,9176973745,http://seedsinthemiddle.org,Thursday 1pm-7pm,Year-round,M,Y,N,N,Y,40.62378,-73.94632
364,Canton Friday Farmers' Market,Village Green Park  Main St.,Canton,13617.0,Elizabeth Parson,NY,3156048133,https://www.facebook.com/CantonNYFarmersMarket/,Friday 9am-2pm,May 8-October 30,P/M,Y,N,N,Y,33.77796,-117.94103999999999
365,Curbside Market-Keeler Apts,501 Seneca Manor Dr.,Rochester,14621.0,Andrea Cuzenz,NY,5854134069,http://www.foodlinkny.org,Wed 2:15pm-3:45pm,July 8-December 16,M/X,Y,Y,N,Y,43.19395,-77.60168
366,Whitten Family Farm Stand,1101 County Road 49,Winthrop,13697.0,Cherie Whitten,NY,3153595112,http://www.whittenfamilyfarm.com,"Monday  3pm-7pm, Tuesday  8am-1pm",July 20-November 24,M,Y,Y,N,Y,44.75203,-74.752
367,Veggie Mobile Sprout-Barker Park,3rd and State St.,Troy,12180.0,Audrey Bridge,NY,5182748685,http://www.capitalroots.org,Tue 11:30am-12pm,Year-round,YR,Y,Y,Y,Y,42.730059999999995,-73.69055
368,Dizzy Lizzie's Farm Farm Stand,3823 Sanderson Rd,Erieville,13061.0,Elizabeth Blackburn,NY,3156627565,http://www.dizzylizziesfarm.com,Tuesday 8:30am-11:30am,July-September,M,Y,N,N,Y,42.83934,-75.74399
369,New Lebanon Farmers' Market,516 NYS Route 20,New Lebanon,12125.0,Joshua Young,NY,9174881061,http://www.facebook.com/newlebanonfarmersmarket,Sunday  10am-2pm,June 2-October 27,M,Y,Y,N,Y,42.46715,-73.3917
370,Curbside Market-Towpath Manor (Palmyra),200 Canal St,Palmyra,14522.0,Andrea Cuzenz,NY,5854134069,http://www.foodlinkny.org,Tue 3:15pm-4:15pm,July 7-December 15,M/X,Y,Y,N,Y,43.06538,-77.23119
371,Clinton Bailey Mon Farmers' Market,Bailey Ave and Clinton St,Buffalo,14206.0,Sharon Baldi,NY,7162080003,http://www.clintonbaileymarket.com,Monday 7am-6pm,May 2-October 31,P/M,N,Y,N,Y,42.87206,-78.81997
372,Wormont Woolies Farm Stand,8998 Summit Rd.,Cassville,13318.0,Katherine Worden,NY,3157251716,https://wormontwoolies.square.site/,Daily 2pm-5pm,Year-round,YR,Y,N,N,Y,42.95876,-75.29666999999999
373,Far Rock Farm Stand,385 Beach 45th Street,Far Rockaway,11691.0,Jenae Joseph,NY,7187733551,http://tcahnyc.org,Saturday  10am-2pm,July 6-November 21,M,Y,Y,N,Y,40.595287,-73.776572
374,Harvest Home East Harlem Farmers' Market,East 104th St and Third Ave,New York,10029.0,Maritza Owens,NY,2128283361,http://www.harvesthomefm.org,Thursday  8am-4pm,July 9-November 19,M,Y,Y,N,Y,40.790240000000004,-73.94564
375,North Tonawanda City Thurs Farmers' Market,310 Robinson Road,North Tonawanda,14120.0,Matt Parrish,NY,7166958555,http://www.northtonawanda.org/Departments/City%20Market.htm,Thursday  7am-1pm,Year-round,YR,Y,Y,N,Y,43.033770000000004,-78.87021
376,Canal Village Farmers' Market,127 W Center St.,Medina,14103.0,Gail Miller,NY,5857983904,http://www.facebook.com/Canal-Village-Farmers-Market-1628793180740256,Sat  9am-2pm,Year-round,YR,Y,Y,Y,Y,43.220217,-78.38851
377,MAP Mobile Market-Neighboorhood Health Center NW,155 Lawn Ave,Buffalo,14207.0,Danielle Rovillo,NY,7168825327,http://www.mass-ave.org,Wednesday 11am-1pm,August 1-Novmeber 1,M,Y,Y,N,Y,42.9506,-78.8895
378,Fort Edward Farmers' Market,359 Broadway,Fort Edward,12828.0,Linda Gifford,NY,5187920198,,Friday  10am-1pm,June 26-October 30,M,Y,N,N,Y,43.28393,-73.58721
379,Little Falls Farmers' & Flea Market,Albany Street and 2nd Street,Little Falls,13365.0,Mary Davis,NY,3158662619,,Saturday  8am-12pm,May 23-October 31,P/M,Y,N,N,Y,43.042840000000005,-74.85828000000001
380,Parry's Hardware WINTER Farmers' Market,100 Utica Street,Hamilton,13346.0,Gwenn Werner,NY,3158240002,http://www.parryshamilton.com,2nd Sat  10am-1pm,November-April,M/X/W/P,N,N,N,Y,42.832844,-75.548027
381,Bushwick Maria Hernandez Pk Farmers' Market,Knickerbocker Avenue,Brooklyn,11206.0,Novelette Scott,NY,7188210254,http://www.riseboro.org,Saturday  9am-3pm,May 16-November 28,P/M,Y,Y,N,Y,40.70257,-73.92497
382,Sullivan Fresh Market on the Move-Wurtsboro,134 Sullivan St,Wurtsboro,12790.0,Michelle Proscia,NY,8452926180,http://www.sullivancce.org,Thursday 10:30am-12:30pm,July 2-October 1,M,Y,Y,N,Y,41.57636,-74.48583
383,79th Street Greenmarket,West 79th St and Columbus Ave,New York,10024.0,Siobahn Keys,NY,2127887476,http://www.grownyc.org/greenmarket/manhattan/79th-street,Sunday  9am-4pm,Year-Round,YR,Y,Y,N,Y,40.78195,-73.97548
384,Genesee Country Friday Farmers' Market,Bank St and Alva Place,Batavia,14020.0,Sharon Brent,NY,7165600853,,Friday  9am-5pm,June 5-October 30,M,Y,Y,N,Y,42.99905,-78.18151
385,JCEO MM-Alice Center,45 6th St,Malone,12953.0,Richard LaVigne,NY,5183194028,http://www.jceo.org,Wednesday 10am-11am,June 10-October 14,M,Y,Y,N,Y,44.860170000000004,-74.29201
386,Roosevelt Community Farm Stand,380 Nassau Rd.,Roosevelt,11575.0,Jacob Dixon,NY,5165442955,http://www.choiceforall.org,Saturday  11am-4pm,September 5-October 24,M,Y,Y,N,Y,40.68172,-73.59132
387,Bay Ridge Greenmarket,Third Ave and 95th St,Brooklyn,11209.0,Siobahn Keys,NY,2127887476,http://www.grownyc.org/greenmarket,Saturday  8am-3pm,May 2-November 21,P/M,Y,Y,N,Y,40.61724,-74.03362
388,Village of Fairport Farmers' Market,58 South Main St,Fairport,14450.0,Fritz May,NY,5852236795,http://www.fairportny.com,Saturday  7am-12pm,May 2-November 21,P/M,Y,N,N,Y,43.099920000000004,-77.44214000000001
389,Oneonta Farmers' Market,205 Main Street,Oneonta,13820.0,Meg Kennedy,NY,6072938128,http://www.oneontafarmersmarket.org,Saturday  9am-1pm,May 2-October 31,P/M,Y,N,N,Y,42.45417,-75.06173000000001
390,Central NY Thursday Regional Market Authority,2100 Park Street,Syracuse,13208.0,Amanda Vitale,NY,3154228647,http://www.cnyrma.com,Thursday 7am-2pm,May-November,P/M,Y,Y,Y,Y,43.07269,-76.16835
391,Veggie Mobile Sprout-Robert Whalen,305 Colonie Street,Albany,12210.0,Audrey Bridge,NY,5182748685,http://www.capitalroots.org,Wed 11:15am-12pm,Year-round,YR,Y,Y,Y,Y,42.66338,-73.75595
392,Hyde Park Farmers' Market,4390 Route 9,Hyde Park,12538.0,Dot Chenevert,NY,8452299336,http://www.hydeparkfarmersmarket.org,Saturday  9am-2pm,June 6-October 31,M,Y,N,N,Y,41.7913,-73.93615
393,Harvest Home Brower Park Farm Stand,Prospect Place and Brooklyn Ave.,Brooklyn,11213.0,Maritza Owens,NY,2128283361,http://www.harvesthomefm.org,Thursday  8am-3pm,June 4-November 19,M,Y,Y,N,Y,40.674,-73.94454
394,Edgemere Farm Stand,385 Beach 45th Street,Queens,11691.0,Michael Repasch-Nieves,NY,3477547336,http://www.edgemerefarm.org,Fri/Sat 10am-3pm,June 5-November 28,P/M,Y,N,N,Y,40.59536,-73.77654
395,Union Square Saturday Greenmarket,Broadway and East 17th St,New York,10003.0,Siobahn Keys,NY,2127887476,https://www.grownyc.org/greenmarket,Saturday  8am-6pm,Year-round,YR,Y,Y,N,Y,40.7371,-73.99032
396,Project EATS Essex Crossing Farm Stand,125 Delancey St,New York,10002.0,Shevan Durant,NY,2126121528,,Sat/Sun 10:30am-6pm,August 8-November 21,P/M,Y,Y,N,Y,40.71818,-73.98756999999999
397,McCarren Park Greenmarket,N 12th Street and Driggs Ave,Brooklyn,11222.0,Siobahn Keys,NY,2127887476,http://www.grownyc.org/greenmarket/brooklyn/greenpoint-sa,Saturday  8am-2pm,Year-round,YR,Y,Y,N,Y,40.720459999999996,-73.95269
398,Ridgewood GrowNYC Farm Stand,Myrtle Ave and Cypress Ave,Ridgewood,11385.0,Siobahn Keys,NY,2127887476,https://www.grownyc.org/farmstands,Saturday  8:30am-3pm,July 20-November 20,M,Y,Y,N,Y,40.700109999999995,-73.90619000000001
399,Veggie Mobile-Schenectady Day Nursery,25 Lafayette St,Schenectady,12307.0,Audrey Bridge,NY,5182748685,http://www.captialroots.org,Monday 4pm-4:45pm,Year-round,YR,Y,Y,Y,Y,42.81479,-73.93633
400,Kirby Farm Hemlock Grove Farm Stand,25 Kinne Lane,Middletown,10940.0,Charles F. Kirby,NY,8453552718,,Daily 8am-6pm,Year-round,YR,Y,N,N,Y,41.404790000000006,-74.50332
401,Lowville Farmers' Market,5485 Bostwick Street,Lowville,13367.0,Rhonda Farney,NY,3153466759,http://www.facebook.com/lowvillefarmandcraftmarket/,Saturday  8am-2pm,June 6-October 31,M,Y,N,N,Y,43.79484,-75.48769
402,South Dayton Farmers' Market,Rt 322 and Park st.,South Dayton,14138.0,Linda Dewey,NY,7166729004,http://www.facebook.com/pages/South-Dayton-Farmers-Market/1662449950658252,Saturday  9am-3pm,June 6-October 24,M,Y,N,N,Y,42.3609,-79.04925
403,Schwab Farm Stand,9035 Rochester Rd,Gasport,14067.0,Sharon Brent,NY,7165600853,http://www.schwabsfarm.com,"Mon-Fri  8am-7pm, Sat/Sun  9am-5pm",Year-round,YR,Y,Y,N,Y,43.20425,-78.52308000000001
404,Circle G Farm Farm Stand,705 County Route 7,Hammond,13646.0,George Blatchley,NY,3155782419,,Sunday 1pm-5pm,June 28-September 27,M,Y,N,N,Y,44.47353,-75.55463
405,Veggie Mobile Sprout-Lansingburgh Apts,41 114th Street,Troy,12182.0,Audrey Bridge,NY,5182748685,http://www.capitalroots.org,Wed 2:30pm-3:15pm,Year-round,YR,Y,Y,Y,Y,42.77223,-73.67258000000001
406,JCEO MM-Malone DSS,184 Finney Blvd,Malone,12953.0,Richard LaVigne,NY,5183194028,http://www.jceo.org,Friday  11:30am-2pm,June 12-October 16,M,Y,Y,N,Y,44.83873,-74.30102
407,Tucker Square Saturday Greenmarket,Columbus and West 66th St,New York,10023.0,Siobahn Keys,NY,2127887476,http://www.grownyc.org/greenmarket/manhattan/tuckerthursday,Saturday  8am-5pm,Year-round,YR,Y,Y,N,Y,40.77361,-73.98158000000001
408,Cunningham Park Farmers' Market,196-10 Union Turnpike,Fresh Meadows,11366.0,Miriam Haas,NY,9149234837,http://www.downtoearthmarkets.com,Sunday  9am-2pm,May 10-November 22,P/M,Y,Y,N,Y,40.73056,-73.77346
409,Emmi's Farm Market-Liverpool,1401 Buckley Road,Liverpool,13088.0,Anthony Emmi,NY,3156357529,http://www.emmifarms.com,"Mon-Sat 10am-6pm, Sunday 10am-6:30pm",July 5-September 4,M,Y,N,N,Y,43.13879,-76.17373
410,Veggie Mobile-Cohoes Senior Ctr,100 Cayuga Plaza,Cohoes,12047.0,Audrey Bridge,NY,5182748685,http://www.capitalroots.org,Wednesday 3pm-4pm,Year-round,YR,Y,Y,Y,Y,42.777120000000004,-73.70101
411,Carroll Gardens Greenmarket,Carroll St and Court St,Brooklyn,11231.0,Siobahn Keys,NY,2127887476,http://www.grownyc.org/greenmarket/brooklyn/carroll-gardens,Sunday  8am-2pm,Year-round,YR,Y,Y,N,Y,40.681059999999995,-73.99653
412,Queens County Farm Museum Farm Stand,73-50 Little Neck Parkway,Queens,11004.0,Anne Mastrogiacomo,NY,7183473276,http://www.queensfarm.org,Wed-Sun 11am-3pm,July 8-November 8,P/M,Y,Y,N,Y,40.74818,-73.72124000000001
413,Saranac Lake Village Farmers' Market,Corner of Main St. & Route 3,Saranac Lake,12983.0,Dan Rivera,NY,5185634777,http://www.ausablevalleygrangefarmersmarkets.com/,Saturday  9am-2pm,May 30-October 10,M,Y,Y,N,Y,44.32503,-74.13178
414,Brooklyn Borough Hall Tuesday Greenmarket,Court St and Montague St,Brooklyn,11201.0,Siobahn Keys,NY,2127887476,http://www.grownyc.org/greenmarket/brooklyn/boro-hall-sa,Tuesday  8am-4pm,Year-round,YR,Y,Y,N,Y,40.693740000000005,-73.99043
415,Fromer Market Gardens Farm Stand,6120 Main Street,Tannersville,12485.0,Becky Kempter,NY,9165993136,,Saturdays  9am-3pm,Year-round,YR,N,N,N,Y,42.19546,-74.13889
416,Ginegaw Farmers' Market,1980 Walworth Penfield Rd.,Walworth,14568.0,Jacqueline VanLare,NY,3159861400,http://www.townofwalworthny.gov,Tuesday  3pm-6pm,June 9-October 6,M,Y,N,N,Y,43.1391,-77.28549
417,Veggie Mobile-Howe Library,Schuyler St and Broad Street,Albany,12202.0,Audrey Bridge,NY,5182748685,http://www.capitalroots.org,Tue 3pm-3:45pm,Year-round,YR,Y,Y,Y,Y,42.64112,-73.75802
418,Westside Tilth Market Farm Stand,246 Normal Ave.,Buffalo,14213.0,Carrie Nader,NY,7163616591,http://www.westsidetilth.com,Sat 10am-2pm,July 4-October 31,M,Y,N,N,Y,42.90687,-78.88899
419,Curbside Market-Glenwood Gardens,41 Kestrel St,Rochester,14613.0,Andrea Cuzenz,NY,5854134069,http://www.foodlinkny.org,Sat  4pm-5:15pm,July 11-December 19,M/X,Y,Y,N,Y,43.175465,-77.644124
420,Dwarf Hollow Farm Stand,10312 State Route 53,Prattsburgh,14873.0,Cynthia Kolkmann,NY,6075223277,http://www.dwarfhollowfarmstad.com,Daily 10am-6pm,May 1-November 30,P/M,Y,N,N,Y,42.50169,-77.28544000000001
421,Clancy Farms Farm Stand,265 Heiser Road,Fort Plain,13339.0,David Clancy,NY,5189934806,http://www.facebook.com/clancyfarm,"Mo/Tu/We  10am-6pm, Saturday  1pm-6pm",June 22-October 31,M,Y,N,N,Y,42.91494,-74.62885
422,Jefferson Farmers' Market,221 Cremery St.,Jefferson,12093.0,Carol Bodnar,NY,6076522107,http://www.facebook.com/Jefferson-NY-Farmers-Market-1982994021967209/,Saturday 9am-12pm,May 23-October 10,P/M,Y,N,N,Y,42.48069,-74.6133
423,Plattsburgh Farmers' & Crafters Wed Market,Broad St and Durkee St,Plattsburgh,12901.0,Julie Baughn,NY,5188027164,http://www.facebook.com/pages/Plattsburgh-Farmers-and-Crafters-Market/121588034547095,Wednesday  10am-2pm,June 3-October 31,M,Y,N,N,Y,44.69535,-73.45226
424,Saranac Lake WINTER Farmers' Market,100 Main St,Saranac Lake,12983.0,Jacob Vennie Vollrath,NY,5182172495,http://www.ausablevalleygrangefarmersmarkets.com/,Saturday  10am-2pm,October 19-Dec19,M/X,Y,N,N,Y,44.32717,-74.13016
425,Corona Greenmarket,Roosevelt Ave and 103rd St,Corona,11368.0,Siobahn Keys,NY,2127887476,http://www.grownyc.org/greenmarket,Friday  8am-3pm,June19-November 27,M,Y,Y,N,Y,40.74994,-73.86221
426,Mount Sinai Hospital Greenmarket,East 99th St and Madison Ave,New York,10029.0,Siobahn Keys,NY,2127887476,http://www.grownyc.org/greenmarket,Wednesday  8am-5pm,June 10-November 25,M,Y,Y,N,Y,40.78918,-73.95276
427,Veggie Mobile-Ten Eyck Apts,375 Broadway,Schenectady,12305.0,Audrey Bridge,NY,5182748685,http://www.capitalroots.org,Fri 3:15pm-4pm,Year-round,YR,Y,Y,Y,Y,42.80919,-73.94511
428,Harvest Home Kings Co. Hospital Farmers' Market,511 Clarkson Ave,Brooklyn,11203.0,Maritza Owens,NY,2128283361,http://www.harvesthomefm.org,Wednesday  8am - 6pm,June 17-November 25,M,Y,Y,N,Y,40.655879999999996,-73.94245
429,Peaceful Soul Farmers' Market,11359 Southwestern Blvd,Irving,14081.0,Azalia Garlow,NY,7169037066,http://www.peacefulsoulfarmersmarket.com,Tuesday  10am-3pm,June 16-October 27,M,Y,Y,N,Y,42.57394,-79.09044
430,Fayetteville Farmers' Market,504 Burdick Street,Fayetteville,13066.0,Lacey Cashman,NY,3013351434,http://www.fayettevillefarmersmarketcny.com,Thur 12pm-6pm,May 7-October 22,P/M,Y,N,N,Y,43.027640000000005,-76.01608
431,Veggie Mobile Sprout-John S. Moore,2 Harris Avenue,Mechanicville,12118.0,Audrey Bridge,NY,5182748685,http://www.capitalroots.org,Fri 3pm-3:30pm,Year-round,YR,Y,Y,Y,Y,42.89934,-73.69122
432,Moravia Farmers' Market,130 Main St,Moravia,13118.0,Barbara Flynn,NY,3154962235,,Thursday  10am-2pm,June 4-October 29,M,Y,N,N,Y,42.71209,-76.42079
433,Inwood Greenmarket,Isham St and Seaman St,New York,10034.0,Siobahn Keys,NY,2127887476,http://www.grownyc.org/greenmarket/manhattan/inwood,Saturday  8am-3pm,Year-round,YR,Y,Y,N,Y,40.86988,-73.9209
434,Country Fresh Farmingdale Farmers' Market,361 Main St,Farmingdale,11735.0,Mary Schneider,NY,6316735844,,Sunday  10am-3pm,June 7-November 22,M,Y,N,N,Y,40.73166,-73.44566
435,Stuyvesant Town Greenmarket,1 Stuyvesant Oval,New York,10009.0,Siobahn Keys,NY,2127887476,http://www.grownyc.org/greenmarket,Sun  9:30am-4pm,May 17-December 20,P/M/X,Y,Y,N,Y,40.73146,-73.97875
436,Human Farms & Greenhouse,2853 Hess Rd,Appleton,14008.0,JoMarie Human,NY,7165312820,,Daily 9a-5p,June 1-December 31,M/X,Y,Y,N,Y,43.27537,-78.64954
437,Florida NY Farmers' Market,133 N Main Street,Florida,10921.0,Janet Picarelli,NY,8456518310,http://www.floridafarmersmarket.org,Tue 10am-4pm,June 16-Oct 27,M,Y,N,N,Y,41.33775,-74.35873000000001
438,5 Loaves Farm Stand-Delavan Ave,70 West Delevan Ave,Buffalo,14213.0,Matt Kauffman,NY,7168039241,http://5loavesfarm.org,Friday 4pm-7pm,July 1-September 31,M,Y,N,N,Y,42.9223,-78.8969
439,Hamilton Heights Green Youth Market,143rd Street and Amsterdam Ave,Manhattan,10031.0,Wendy Flores,NY,2122837044,http://brotherhood-sistersol.org/programs/environmental-program,Wed  11am-6pm,June 20-November 25,M,Y,Y,N,Y,40.82396,-73.94855
440,Rockefeller Center Thu Greenmarket,Rockefeller Plaza and West 50th St,New York,10112.0,Siobahn Keys,NY,2127887476,http://www.grownyc.org/greenmarket,Thursday  8am-5pm,July 16-August 20; Oct 1-October 22,M,Y,Y,N,Y,40.75914,-73.97873
441,Our Green Acres Farm Stand,3965 Waverly Rd,Owego,13827.0,Frank Wiles,NY,6076872874,http://www.ourgreenacres.com,Daily 11am-6pm,June 15-October 31,M,Y,N,N,Y,42.10315,-76.26335999999999
442,Old Forge Farmers' Market,Crosby Blvd and Park Ave,Old Forge,13420.0,Robin Hill,NY,3153693353,http://www.cap-21.org,Friday  1pm-5pm,June 19-October 9,M,Y,Y,Y,Y,43.70893,-74.97286
443,Ft Edward Canal St. Mktplace Farmers' Market,63 Canal Street,Fort Edward,12828.0,Peter Williams,NY,5187473237,http://www.canalstreetmarketplace.org,Thursday  4pm-7pm,June 4-September 24,M,Y,N,N,Y,43.26875,-73.58419
444,Canajoharie Farmers' Market,24 Church Street,Canajoharie,13317.0,Janet L. Stanley,NY,5186730292,http://www.canajohariefarmersmarket.com,Sunday  11am-2pm,June 9-October 11,M,Y,N,N,Y,42.90515,-74.57222
445,Voorheesville Farmers' Market,68 Maple Ave,Voorheesville,12186.0,Dianne Luci,NY,5187654536,http://www.facebook.com/VoorheesvilleFarmersMarket,Wed  3:30pm-6:30pm,June 17-September 30,M,Y,N,N,Y,42.648920000000004,-73.92990999999999
446,Curbside Market-Salvation Army (Geneva),41 North St,Geneva,14456.0,Andrea Cuzenz,NY,5854134069,http://www.foodlinkny.org,Fri 11:15am-12:30pm,July 10-December 18,M/X,Y,Y,N,Y,42.87554,-76.9801
447,Bartel-Pritchard Square Sunday Greenmarket,Prospect Park West and 14th Street,Brooklyn,11215.0,Siobahn Keys,NY,2127887476,http://www.grownyc.org/greenmarket/brooklyn/bartel-pritchard-square-wed,Sunday  9am-3pm,Year-round,YR,Y,Y,N,Y,40.660940000000004,-73.97979000000001
448,Warwick Valley Farmers' Market,South St and Bank St,Warwick,10990.0,Cheryl Rogowski,NY,8459879990,http://www.warwickvalleyfarmersmarket.org,Sunday  9am-2pm,May 10-November 22,P/M,Y,Y,N,Y,41.25656,-74.35858
449,Restoration Farm Farm Stand,140 Bethpage-Sweet Hollow Road,Old Bethpage,11804.0,Caroline Fanning,NY,7183094220,http://www.restorationfarm.com,"Saturday 10am-1pm, Tu/Th 3pm-6pm, hours change Oct 31",May 16-December 19,M/X,Y,N,N,Y,40.76181,-73.44488
450,Williamsburg Greenmarket,199 Taylor St,Brooklyn,11211.0,Siobahn Keys,NY,2127887476,http://www.grownyc.org/greenmarket,Thursday  8am-4pm,July 2-November 19,M,Y,Y,N,Y,40.70643,-73.96211
451,Nyack Farmers' Market,Main St and Franklin St,Nyack,10960.0,Pam Moskowitz,NY,8454943408,http://www.nyackchamber.org,Thursday  8am-2pm,March 5-December 17,P/M/X,Y,Y,N,Y,41.09154,-73.9216
452,Tompkins Square Greenmarket,Avenue A and East 7th St,New York,10009.0,Siobahn Keys,NY,2127887476,http://www.grownyc.org/greenmarket/manhattan/tompkins-square,Sunday  9am-5pm,Year-round,YR,Y,Y,N,Y,40.72602,-73.98353
453,Curbside Market-Maco PKG-Newark,412 Van Buren St,Newark,14513.0,Andrea Cuzenz,NY,5854134069,http://www.foodlinkny.org,Thu 3:15pm-4:15pm,July 9-December 17,M/X,Y,Y,N,Y,43.05012,-77.07939
454,Schneider's Farm Stand,316 Old Country Road,Melville,11747.0,Mary Schneider,NY,6316735844,http://www.schneidersfarmmelville.com,Daily  9am-6pm,April 23-December 24,P/M/X,Y,N,N,Y,40.80186,-73.39911
455,Woodstock Farm Festival Farmers' Market,6 Maple Ln,Woodstock,12498.0,Jessica Lunt,NY,8452420275,http://www.woodstockfarmfestival.com,Wednesday  3pm-8pm,May 27-October 7,P/M,Y,Y,N,Y,42.04018,-74.11797
456,Watt Farms Country Market,3121 Oak Orchard Rd,Albion,14411.0,Karen Watt,NY,5855898000,http://www.wattfarms.com,Daily  9am-9pm,June 1-December 25,M/X,Y,N,N,Y,43.265158,-78.192266
457,Skaneateles Farmers' Market-Thursday,One E. Austin St,Skaneateles,13152.0,Sue Murphy,NY,3157279320,http://www.townofskaneateles.com,Thurs 3:30pm-6:30pm,May 21-October 15,P/M,Y,N,N,Y,42.95089,-76.4309
458,MAP Mobile Market-Elim Fellowship,70 Chalmers Avenue,Buffalo,14214.0,Danielle Rovillo,NY,7168825327,http://www.mass-ave.org,Wednesday 11am-1pm,June 6-October 29,M,Y,Y,N,Y,42.93779,-78.83581
459,Godfrey's Last Stand Farm Stand,1232 State Route 264,Phoenix,13135.0,Roberta and Josephine Godfrey,NY,3155937291,http://www.facebook.com/Godfreys-Last-Stand-146264062067804/,Daily  11am-5pm,May 1-December 23,P/M,Y,Y,N,Y,43.31155,-76.29001
460,Vienna Farmers' Market,7812 State Rte 13,Blossvale,13471.0,Jessica Johnson-Travers,NY,3158866824,http://www.vfm-ny.com,Thursday 3pm-6:30pm,May 21-October 1,M,Y,Y,N,Y,43.24004,-75.70196
461,Eisenhower Park Farm Stand,Stewart @ Merrick Ave.,East Meadow,11554.0,Jane Kraus,NY,5168322591,http://ccenassau.org,Saturday 10am-1pm,July 18-October 17,M,Y,N,N,Y,40.73687,-73.58301
462,Red Fox Farm Farm Stand,1725 Brentwood Rd,Brentwood,11717.0,Ernest Herrington,NY,6312770159,http://www.redfoxfarmfarm,Thu/Sat 9am-5pm,May 30-October 31,M,Y,N,N,Y,40.77235,-73.24614
463,Clinton Bailey Fri Farmers' Market,Bailey Ave and Clinton St,Buffalo,14206.0,Sharon Baldi,NY,7162080003,http://www.clintonbaileymarket.com,Friday 7am-6pm,May 2-October 31,P/M,N,Y,N,Y,42.87206,-78.81997
464,Veggie Mobile Sprout-St. Sophia Church,440 Whitehall Road,Albany,12208.0,Audrey Bridge,NY,5182748685,http://www.capitalroots.org,Wed 12:40pm-1pm,Year-round,YR,Y,Y,Y,Y,42.65197,-73.81477
465,Saint George Greenmarket,St Marks Pl and Hyatt St,Staten Island,10301.0,Siobahn Keys,NY,2127887476,http://www.grownyc.org/greenmarket/staten-island/saint-george,Saturday  9am-1pm,Year-round,YR,Y,Y,N,Y,40.64159,-74.07791
466,Kingston Farmers' Market,Wall St and John St,Kingston,12401.0,Laura Crimmins,NY,6462624672,http://www.kingstonfarmersmarket.org,Saturday  9am-2pm,May 9-November 21,P/M,Y,Y,Y,Y,41.933840000000004,-74.01968000000001
467,Colwell's Farm Stand and Garden Center,6007 State Route 12,Glenfield,13343.0,Michael Colwell,NY,3153767402,http://www.colwellsfarmmarket.com,Daily 9am-6pm,April 1-December 20,P/M/X,Y,Y,N,Y,43.71844,-75.41148000000001
468,"Learn it, Grow it, Eat it  GrowNYC Farm Stand",E. 169th St. and Boston Rd.,Bronx,10456.0,Siobahn Keys,NY,2127887476,https://www.grownyc.org/farmstands,Wednesday  10am-3pm,July 15-November 26,M,Y,Y,N,Y,40.83121,-73.90021999999999
469,South End Healthy Farmers' Market,20 Warren Street,Albany,12202.0,Tom McPheeters,NY,5184519849,http://www.avillageworks.org/south-end-healthy-market.html,Thursday 3pm-7pm,May 27-October 29,M,Y,Y,N,Y,42.64326,-73.7599
470,Perfectly Blended Farm Farm Stand,3819 Riceville Rd,Machias,14101.0,Melissa Keller,NY,7162580645,http://www.perfectlyblendedfarm.com,"Friday 5pm-8pm, Sat/Sun 10am-2pm",May 2-October 17,P/M,Y,N,N,Y,42.43378,-78.51895999999999
471,Dragonfly Hill Farm Farm Stand,3984 Austin Rd,Moravia,13118.0,Rebecca Davis,NY,3155188163,,Daily 9am-5pm,Year-round,YR,Y,N,N,Y,42.6992,-76.47731999999999
472,Curbside Market-Charlotte Harbortower I,4575 Lake Avenue,Rochester,14612.0,Andrea Cuzenz,NY,5854134069,http://www.foodlinkny.org,Fri 2:30pm-3:45pm,July 10-December 18,M/X,Y,Y,N,Y,43.25492,-77.61411
473,Black Horse Farms Farm Stand,10094 Rte 9W,Athens,12015.0,Chellie Apa,NY,5187318776,http://www.blackhorsefarms.com,Daily  8am-6pm,March 20-December 24,W/P/M/X,Y,Y,N,Y,42.306340000000006,-73.85043
474,Saratoga Nemer Farmers' Market,617 Maple Ave Route 9,Saratoga Springs,12866.0,Linda Gifford,NY,5187920198,,Monday 10am-1pm,June 15-October 26,M,Y,N,N,Y,43.11797,-73.7695
475,Spencer-Van Etten Farmers' Market,Owego Street Ext and N Main St,Spencer,14883.0,Stephanie Hafl,NY,6075897496,http://www.facebook.com/SpencerVanEttenFarmersMarket/,Saturday  9am-12:30pm,June 6-October 1,M,Y,N,N,Y,42.21138,-76.49266999999999
476,The Garden at St. Francis Farm Stand,1692 Bellmore Ave,North Bellmore,11710.0,Chris McCabe,NY,5165906718,http://www.stfrancisbellmore.org/the-garden,Sunday  11am-2pm,July 26-October 25,M,Y,N,N,Y,40.68156,-73.53528
477,Bronx Borough Hall Greenmarket,901 Grand Concourse,Bronx,10451.0,Siobahn Keys,NY,2127887476,http://www.grownyc.org/greenmarket,Tuesday  8am-4pm,June 2-November 24,M,Y,Y,N,Y,40.82715,-73.92276
478,Veggie Van MM-Baker Victory,790 Ridge Road,Lackawanna,14218.0,Jen Regan,NY,7162990905,http://www.cceniagaracounty.org,Wednesday 10am-11am,June 1-October 31,M,Y,Y,N,Y,42.82598,-78.82226999999999
479,Holland Farmers' Market,25 North Main St.,Holland,14080.0,Marg Wnek,NY,7165379590,http://www.thehollandmkt.com,Sunday  8:30am-1pm,May 3-October 25,P/M,Y,N,N,Y,42.641490000000005,-78.54248
480,Amenia WINTER Farmers' Market,4988 New York 22,Amenia,12501.0,Sophie Purdy Meili,NY,4133297389,http://www.ameniafarmersmarket.com,"Saturday  10am-2pm, 1st & 3rd Saturday  Jan-Apr",November-April,M/X/W/P,N,Y,N,Y,41.851397,-73.55494300000001
481,Harvest Home N Central Bronx Farmers' Market,Jerome Ave and East Mosholu Pkwy North,Bronx,10467.0,Maritza Owens,NY,2128283361,http://www.harvesthomefm.org,Wednesday  8am-4pm,June 17-November 25,M,Y,Y,N,Y,40.88046,-73.88385
482,Curbside Market-Dunn Towers,100 Dunn Tower Drive,Rochester,14606.0,Andrea Cuzenz,NY,5854134069,http://www.foodlinkny.org,Mon 10:30am-11:45am,July 6-December 14,M/X,Y,Y,N,Y,43.16924,-77.69726999999999
483,Niagara Falls City Friday Market,1800-1808 Pine Ave,Niagara Falls,14301.0,Victor Muto,NY,7167540798,http://www.local-farmers-markets.com/market/3569/niagara-falls/niagara-falls-city-market,Friday  9am-3pm,Year-round,YR,Y,N,N,Y,43.09513,-79.03971999999999
484,Cedarmore Farmers Market-Baldwin LIRR,Lot #BA12 Sunrise Hwy,Baldwin,115510.0,Debra Wheat-Williams,NY,5163783415,http://www.freeportfarmersmarket.org/,Sat 11:30am-3:30pm,July 11-October 31,M,Y,Y,N,Y,40.6566,-73.6221
485,JCEO MM-Riverside Haven Apartments,50 Catherine St.,Malone,12953.0,Richard LaVigne,NY,5183194028,http://www.jceo.org,Thursday 10am-11:15am,June 11-October 15,M,Y,Y,N,Y,44.84783,-74.29156
486,New Roots Community Farm Stand,670 Grand Concourse,Bronx,10451.0,Sheryll Durrant,NY,2123774747,,Tuesday  3pm-7pm,July 7-October 27,M,Y,N,N,Y,40.82172,-73.92524
487,Grove Park Farm Stand,Walnut Ave and West 4th St,Elmira,14901.0,Matthew Glenn,NY,6075464535,https://www.facebook.com/GroveParkFarmersMarket,Monday  3pm-6pm,June 1-October 26,M,N,N,N,Y,42.09212,-76.82014000000001
488,Islip Farmers' Market,655 Main Street,Islip,11751.0,Ethel Terry,NY,6313233653,http://www.longislandgrowersmarket.com,Saturday 7am-12pm,June 6-November 28,M,Y,N,N,Y,40.72975,-73.21077
489,Boonville Farmers' Market,"Erwin Park parking lot, Route 12",Boonville,13309.0,Michelle Bartelotte,NY,3159425112,http://boonvillechamber.com,Thur 12:30pm-5:30pm,June 11-October 1,M,Y,N,N,Y,43.48178,-75.34404
490,Brooklyn Grange Farm Stand @ LIC,37-18 Northern Blvd.,Long Island City,11101.0,Ben Flanner,NY,6082150218,http://www.brooklyngrangefarm.com,Saturday  10am-4pm,May 16-October 31,P/M,Y,Y,N,Y,40.75201,-73.92583
491,Dykeman Farm Farm Stand,31 Dykeman Lane,Pawling,12564.0,Beth Dykeman,NY,8458326068,http://www.dykemanfarm.com,Daily  9am-6pm,July 1-October 31,M,Y,N,N,Y,41.627390000000005,-73.60795
492,Whitten Family Farm Stand-The Hub,320 Park Street,Tupper Lake,12986.0,Cherie Whitten,NY,3153595112,http://www.whittenfamilyfarm.com,Wed/Thu/Fri/Sat/Sun 11am-5pm,June 21-November 21,P/M,Y,N,N,Y,44.22528,-74.44821
493,Dag Hammarskjold Plaza Greenmarket,East 47th St and Second Ave,New York,10017.0,Siobahn Keys,NY,2127887476,http://www.grownyc.org/greenmarket/manhattan/dag-hammarskjold,Wednesday  8am-4pm,Year-round,YR,Y,Y,N,Y,40.75298,-73.96989
494,Delaware Community Farmers' Market,331 Delaware Ave,Albany,12209.0,Louise McNeilly,NY,5184341730,http://www.facebook.com/DelawareAreaNeighborhoodAssociation,"Tuesdays  4pm-7pm, Oct-Nov 3pm-6pm",June 23-November 17,M,Y,Y,N,Y,42.64305,-73.77824
495,Jim Dooley Center Farm Stand,196 North St,Geneva,14456.0,Kathy Ryrko,NY,3157874190,,Monday 3pm-6pm,July 8-September 28,M,Y,N,N,Y,42.87573,-76.9877
496,Owen Orchards Farm Stand,8174 Grant Ave.,Weedsport,13166.0,Gordon Tripp,NY,3152524097,http://www.owenorchard.com,"Mon-Sat  9am-7pm, Sunday  9am-6pm","Aug 1-March 30, 2021",M/X/W,Y,Y,N,Y,43.01314,-76.50749
497,Alfred Farmers' Market,3 South Main Street,Alfred,14802.0,Mary Gardner-Ruch,NY,6075879244,http://www.alfredfarmersmarket.com,Sunday  11am-3pm,June 14-October 24,M,Y,Y,N,Y,42.25359,-77.79035999999999
498,The Windmill Farmers' Market,3900 State Route 14A,Penn Yan,14527.0,Stephen D. Wilson,NY,3155363032,http://www.thewindmill.com,Saturday  8am-4:30pm,May 23-November 28,P/M,Y,N,N,Y,42.57687,-77.03609
499,Malone Farmers' Market,27 Airport Road,Malone,12953.0,Dick Crawford,NY,5185634777,http://www.adirondackfarmersmarket.com,Wed  12pm-4:30pm,May 27-October 7,P/M,Y,N,N,Y,44.84733,-74.32773
500,Rock Hill Farmers' Market,223 Rock Hill Drive,Rock Hill,12775.0,Melinda Meddaugh,NY,8453970376,http://www.rockhillfarmersmarket.com,Saturday  10am-1pm,June 6-September 26,M,Y,N,N,Y,41.62515,-74.59634
501,Plattsburgh Farmers' and Craft Sat Market,Broad St and Durkee St,Plattsburgh,12901.0,Julie Baughn,NY,5188027164,http://www.facebook.com/pages/Plattsburgh-Farmers-and-Crafters-Market/121588034547095,Saturday  9am-2pm,May 30-October 31,P/M,Y,Y,N,Y,44.69535,-73.45226
502,Cooperstown Tuesday Farmers' Market,101 Main Street,Cooperstown,13326.0,Ellen Pope,NY,6075478881,http://www.cooperstownfarmersmarket.org,Tuesday 3pm-7pm,June-September,M,Y,Y,N,Y,42.70063,-74.92524
503,Kennedy Plaza Long Beach Farmers' Market-Sat,1 West Chester St,Long Beach,11561.0,Bernadette Martin,NY,5165643485,http://www.ligreenmarket.org,Saturday 9am-2pm,June 17-November 25,P/M,Y,N,N,Y,40.58943,-73.66592
504,Port Washington Organic Farmers' Market,347 Main St.,Port Washington,11050.0,Patti Wood,NY,5168830887,http://www.grassrootsinfo.org,Saturday  8am-12pm,June 13-November 21,M,Y,N,N,Y,40.83153,-73.7019
505,TFFJ Fresh Farm Market-Brooklyn,85 Watkins St,Brooklyn,11212.0,Katherine Soll,NY,9292411029,http://www.teensforjustice.org,Tuesday 2:30pm-5pm,Year-Round,YR,N,Y,N,Y,40.67083,-73.90815
506,Lima Presbyterian Church Farmers' Market,7295 W. Main St.,Lima,14485.0,Suzanne Muehleisen,NY,5857529238,http://limafarmmarket.com/,Tuesday  3pm-6pm,June 23-October 27,M,Y,N,N,Y,42.904959999999996,-77.61175
507,Veggie Van MM-Lackawana,230 Martin Rd,Lackawana,14218.0,Jen Regan,NY,7162990905,http://cceniagaracounty.org/communities/creating-healthy-schools-communities/creating-healthy-communities/veggie-van,Wed 11:30am-12:30pm,June 1-October 31,M,Y,Y,N,Y,42.81641,-78.8161
508,Seven Counties Farmers' Market-Tues,Main St and Central Ave,Owego,13827.0,John Purdy,NY,6076428439,,Tuesday  9am-1pm,June-October,M,Y,N,N,Y,42.10324,-76.26314
509,Ballston Spa Saturday Farmers' Market,Front St and Low St,Ballston Spa,12020.0,Ellen Mottola,NY,5188852772,http://www.ballston.org,Saturday  9am-12pm,June 20-September 26,M,Y,N,N,Y,43.002559999999995,-73.84964000000001
510,Keene Farmers' Market,2253 State Route 73,Keene Valley,12943.0,Dan Rivera,NY,5185634777,http://www.adirondackfarmersmarket.com,Sunday  9:30am-2pm,May 31-October 11,M,Y,N,N,Y,44.22067,-73.78560999999999
511,Walton Farmers' Market,181 Delware Street,Walton,13856.0,Jeanne Darling,NY,6078656531,http://www.ccedelaware.org,Friday 10am-2pm,July 3-September 25,M,Y,N,N,Y,42.16855,-75.13157
512,Veggie Mobile Sprout-O'Neil Apts,2121 6th Ave.,Troy,12180.0,Audrey Bridge,NY,5182748685,http://www.capitalroots.org,Wed 3:30pm-4:15pm,Year-round,YR,Y,Y,Y,Y,42.734359999999995,-73.68587
513,Curbside Market-GHA Elmcrest Apts,99 Lewis St.,Geneva,14456.0,Andrea Cuzenz,NY,5854134069,http://www.foodlinkny.org,Fri 3:15pm-4:15pm,July 10-December 18,M/X,Y,Y,N,Y,42.870909999999995,-76.9846
514,Union Square Wednesday Greenmarket,Broadway and East 17th St,New York,10003.0,Siobahn Keys,NY,2127887476,https://www.grownyc.org/greenmarket,Wednesday  8am-6pm,Year-round,YR,Y,Y,N,Y,40.7371,-73.99032
515,Abers Acres Farm Stand,884 Rte. 394,Kennedy,14747.0,Sue Abers,NY,7162672431,http://www.abersacres.com,"Daily 9am-6:30pm, Nov-May 10am-5pm",Year-round,YR,Y,Y,N,Y,42.14495,-79.10996
516,Bulich Creekside Farm Farm Stand,1682 Route 23B,Leeds,12451.0,Ron Bulich,NY,5185885320,,Daily 10am-5pm,July 4-November 5,M,Y,N,N,Y,42.26297,-73.92541
517,Curbside Market-Winton Gardens Towers,2052 East Main St,Rochester,14609.0,Andrea Cuzenz,NY,5854134069,http://www.foodlinkny.org,Wed 10:45am-12:15pm,July 8-December 16,M/X,Y,Y,N,Y,43.160759999999996,-77.55556
518,MAWS Farm Stand,7342 Main Street,Newport,13416.0,Michael Skwara,NY,3159850088,http://www.mawsfarm.com,"Daily  9am-6pm, hours change Nov-Apr",Year-round,YR,Y,Y,N,Y,43.18096,-75.01054
519,Ithaca WINTER Farmers' Market,700 West Buffalo St.,Ithaca,14850.0,Becca Rimmel,NY,6072737109,http://www.ithacamarket.com,Saturday  10:30am-2pm,January 5-March 30,W,N,Y,N,Y,42.44097,-76.51093
520,Pakatakan Farmers' Market,46676 State Highway 30,Halcottville,12438.0,Georgianna Fairlie,NY,8452544290,http://roundbarnmarket.org,"Saturday  9am-1pm, hours change Oct 17",May 16-November 28,P/M,Y,N,N,Y,42.201029999999996,-74.59909
521,Syracuse Eastside Neighborhood Market,826 Euclid Ave,Syracuse,13210.0,Jake Losowski,NY,3154788634,https://westcottcc.org/syracuse-eastside-farmers-market/,Wednesday  2pm-6pm,June 1-November 1,M,Y,Y,N,Y,43.03662,-76.1192
522,Tucker Square Thursday Greenmarket,Columbus and West 66th St,New York,10023.0,Siobahn Keys,NY,2127887476,http://www.grownyc.org/greenmarket,Thursday  8am-5pm,Year-round,YR,Y,Y,N,Y,40.77362,-73.98156
523,Veggie Mobile Sprout-Monument Square Apts,1st Street #1,Troy,12180.0,Audrey Bridge,NY,5182748685,http://www.captialroots.org,Tue 12:15pm-12:45pm,Year-round,YR,Y,Y,Y,Y,42.73123,-73.69261
524,Curbside Market-Beechwood Neighborhood,441 Parsells Ave,Rochester,14609.0,Andrea Cuzenz,NY,5854134069,http://www.foodlinkny.org,Wed 1:30pm-2:30pm,July 8-December 16,M/X,Y,Y,N,Y,43.1658,-77.56665
525,Roberto Fred Farm Stand,10655 Temple Rd,Dunkirk,14048.0,Roberto Fred,NY,7163667200,,Daily  9am-6pm,June 1-November 30,M,Y,Y,N,Y,42.464201,-79.361694
526,Becken Farms Farm Stand,2585 Upper Mt. Rd,Sanborn,14132.0,Randy Becken,NY,7169904454,,Thur-Sat 10am-5pm,August 13-October 31,M,Y,N,N,Y,43.16823,-78.90518
527,Gillie Brook Farm Stand,6147 Gillie Brook Road,Memphis,13112.0,Robert Nogash,NY,3156723706,http://www.gilliefarms.com,Sun 10am-3pm,April 30-Feb 2021,P/M/X/W,Y,Y,N,Y,43.07172,-76.35375
528,Pleasantville WINTER Farmers' Market,40 Romer Ave,Pleasantville,10570.0,Steven Bates,NY,9142054545,http://www.pleasantvillefarmersmarket.org,Saturday  8:30am-1pm,December 7-March 28,X/W,N,Y,N,Y,41.134501,-73.785274
529,Fort Greene Park Greenmarket,Washington Park and DeKalb Ave,Brooklyn,11205.0,Siobahn Keys,NY,2127887476,http://www.grownyc.org/greenmarket/brooklyn/fort-greene,Saturday  8am-3pm,Year-round,YR,Y,Y,N,Y,40.68962,-73.97313
530,Veggie Mobile-Kennedy Towers Apts,2100 6th Avenue,Troy,12180.0,Audrey Bridge,NY,5182748685,http://www.capitalroots.org,Thu 2:45pm-3:45pm,Year-round,YR,Y,Y,Y,Y,42.73495,-73.68493000000001
531,Parkchester Greenmarket,White Plains Rd & Westchester Avet,Bronx,10472.0,Siobahn Keys,NY,2127887476,http://www.grownyc.org/greenmarket,Friday  8am-4pm,June 5-November 27,M,Y,Y,N,Y,40.83319,-73.86256999999999
532,Champlain Farmers' Market,Main Street,Champlain,12919.0,Janet McFetridge,NY,5182984152,http://www.vchamplain.com/,Saturday  9am-12pm,June 15-September 15,M,Y,N,N,Y,44.98721,-73.44960999999999
533,Lockport Community Farmers' Market,57 Canal Street,Lockport,14094.0,Jessica Dittly,NY,7164340212,http://www.lockportcommunitymarket.com,Saturday  9am-2pm,June 27-October 31,M,Y,Y,N,Y,43.1705,-78.694
534,Speculator Farmers & Crafters Farmers' Market,State Route 30 and Elliot Ln,Speculator,12164.0,Donna Benkovich,NY,5185484521,http://www.speculatorchamber.com,Thursday  2pm-5pm,June 25-September 17,M,Y,N,N,Y,43.496790000000004,-74.36073
535,Seeds in the Middle Farm Stand-Brownsville,213 Osborn St,Brooklyn,11212.0,Nancie Katz,NY,9176973745,http://seedsinthemiddle.org,Friday 2pm-5pm,Year-round,YR,Y,Y,N,Y,40.666990000000006,-73.90811
536,Canton Tuesday Farmers' Market,Main St and Park St,Canton,13617.0,Elizabeth Parson,NY,3156048133,https://www.facebook.com/CantonNYFarmersMarket/,Tuesday  9am-2pm,May 12-October 27,P/M,Y,Y,N,Y,44.59564,-75.16920999999999
537,Queens Botanical Garden Farmers' Market,Main St and Dahlia Ave,Flushing,11355.0,Miriam Haas,NY,9149234837,http://www.downtoearthmarkets.com,Friday  8:30am-4pm,June 12-November 27,M,Y,Y,N,Y,40.75186,-73.82636
538,East Hampton Farmers' Market,60 Spinner Lane,East Hampton,11937.0,Katherine Plumb,NY,6317259133,http://www.facebook.com/East-Hampton-Farmers-Market-177816025660504/,Friday  9am-1pm,June 5-September 11,P/M,Y,Y,N,Y,40.9779,-72.17645999999999
539,Curbside Market-The Hamilton Apts,185 Mount Hope Avenue,Rochester,14620.0,Andrea Cuzenz,NY,5854134069,http://www.foodlinkny.org,Sat 11:45am-1pm,July 11-December 19,M/X,Y,Y,N,Y,43.14573,-77.61013
540,Whitehall Rt. 22 Farmers' Market,Skenesborugh Drive Canal Park,Whitehall,12887.0,Cyd Groff,NY,5186421653,http://www.facebook.com/Route-22-Farmers-Market-Salem-Granville-Whitehall-104950399561700/,Tuesday  1pm-4pm,June 9-October 20,M,Y,N,N,Y,43.55205,-73.40302
541,Saratoga Farmers' Market-Wednesday,3065 Route 50,Wilton,12866.0,Emily Meagher,NY,5187083698,http://www.saratogafarmersmarket.org,Wednesday 3pm-6pm,May 6-October 28,P/M,Y,Y,Y,Y,43.104690000000005,-73.74154
542,The Mall at Greece Ridge Sat Farmers' Market,271 Greece Ridge Center Drive,Rochester,14626.0,Melanie Fazio,NY,5852251140,http://www.themallatgreeceridge.com,Saturday  8am-3pm,June 6-October 31,M,Y,N,N,Y,43.20677,-77.69406
543,Riverdale Y Sunday Farmers' Market,649 W 237th St,Bronx,10463.0,Shira Silverman,NY,7188771270,http://www.riverdaley.org/community/Sunday-market,Sunday  9am-2pm,June 14-November 22,P/M,Y,N,N,Y,40.888442,-73.912784
544,Fable: From Farm to Table Farm Stand,1311 Kitchawan Road,Ossining,10562.0,Tom Deacon,NY,9148620205,http://www.fablefoods.com,Sat/Sun  10am-3pm,July 26-December 20,M/X,Y,N,N,Y,41.21059,-73.81496
545,Circle R Farm Market,13490 Roosevelt Highway,Waterport,14571.0,Laurie Gregori,NY,5856824435,http://www.facebook.com/CircleRFruitFarms/,Daily  9am-8pm,May 15-October 15,P/M,Y,N,N,Y,43.360490000000006,-78.24848
546,Lyons Falls Farmers' Market,6904 Laura St,Lyons Falls,13368.0,Amanda Jones,NY,6802225707,http://www.lyonsfallsalive.org,Tuesday  12pm-5pm,June 23-October 13,M,Y,N,N,Y,43.61458,-75.3562
547,Ticonderoga Area Farmers' Market,1114 Wicker Street,Ticonderoga,12883.0,Mathew Courtright,NY,5185856619,http://www.ticonderogany.com,Saturday  10am-1pm,July 11-September 26,M,Y,N,N,Y,43.85688,-73.43642
548,Salamanca Farmers Market,768 Broad St,Salamanca,14779.0,Rachael Ferguson,NY,7168608419,,Tuesday 11am-5pm,May 26-October 13,P/M,Y,N,N,Y,42.1593,-78.74484
549,JCEO MM-Alice Hyde Medical Center,135 Park St.,Malone,12953.0,Richard LaVigne,NY,5183194028,http://www.jceo.org,Wed  11:15am-2pm,June 12-October 14,M,Y,Y,N,Y,44.85654,-74.29186999999999
550,Bayberry Plaza Farmers' Market,7608 Oswego Rd,Liverpool,13090.0,Madison Cline,NY,3156521463,http://www.bayberryplaza.com,Wednesday  8am-2pm,May 6-October 31,P/M,Y,N,N,Y,43.13779,-76.22601999999999
551,Indian Creek Farm Farm Stand,1408 Trumansburg Rd,Ithaca,14850.0,Alice Brigance,NY,5044328696,http://www.indiancreekithaca.com,Daily 8am-8pm,June 1-November 15,M,Y,N,N,Y,42.4718,-76.54805999999999
552,Auburn Thu Farmers' Co-op Market,96 State Street,Auburn,13021.0,Mark Soper,NY,3157048609,http://www.auburnfarmerscoopmarketinc.com,Thu 7am-2pm,June 4-October 29,M,Y,Y,N,Y,42.93401,-76.57007
553,Gouverneur Health GrowNYC Farm Stand,227 Madison Street,New York,10002.0,Siobahn Keys,NY,2127887476,https://www.grownyc.org/farmstands,Thursday  9am-2pm,July 20-November 20,M,Y,Y,N,Y,40.71321,-73.98779
554,Curbside Market-James Dobson Apts,150 Van Auker Street,Rochester,14608.0,Andrea Cuzenz,NY,5854134069,http://www.foodlinkny.org,Sat 2:15pm-3:30pm,July 11-December 19,M/X,Y,Y,N,Y,43.14997,-77.62109
555,Virgil Farmers' Market,1266 State Route 392,Virgil,13045.0,Matt Hollenbeck,NY,6078356455,http://hollenbeckscidermill.com,Saturday  9am-1pm,June 20-October 10,M,Y,N,N,Y,42.51058,-76.19184
556,Lakewood Farmers' Market,Chautauqua Ave and East Summit St,Lakewood,14750.0,Mary Currie,NY,7167638557,https://www.facebook.com/lakewoodnyfarmersmarket/,Thursday  10am-2pm,June 18-September 3,M,Y,N,N,Y,42.10338,-79.32624
557,Miller's Farm Market,1685 Olean Portville Rd.,Olean,14760.0,Keith Miller,NY,7163722521,,Daily 9am-5pm,April-December,P/M/X,Y,Y,N,Y,42.071439,-78.39814
558,Ditmars Park GrowNYC Farm Stand,22-00 Steinway St.,Queens,11105.0,Siobahn Keys,NY,2127887476,https://www.grownyc.org/farmstands,Saturday  9:30am-2pm,July 18-November 20,M,Y,Y,N,Y,40.77165,-73.90699000000001
559,Brady Farm Farm Stand,150 Ford Ave,Syracuse,13207.0,Jessi Lyons,NY,3154204521,http://www.bradyfarm.org,Saturday 9am-12pm,June 6-October 24,M,Y,Y,N,Y,43.01343,-76.15644
560,Clinton Bailey Sat Farmers' Market,Bailey Ave and Clinton St,Buffalo,14206.0,Sharon Baldi,NY,7162080003,http://www.clintonbaileymarket.com,"Saturday  4am-6pm, Nov-Apr  6am-12pm",Year-round,YR,Y,Y,N,Y,42.87205,-78.81998
561,Veggie Mobile-Schenectady DSS,797 Broadway,Schenectady,12305.0,Audrey Bridge,NY,5182748685,http://www.capitalroots.org,Mon  3pm-3:45pm,Year-round,YR,Y,Y,Y,Y,42.80375,-73.95193
562,My Other Garden Farm Stand,2192 Cook Road,Ballston Lake,12019.0,Maria Matthews,NY,5188825416,https://www.facebook.com/My-Other-Garden-115864378623340/,"Daily 10am-6pm, closed Tuesday",June-November,M,Y,N,N,Y,42.97542,-73.99127
563,Crossroads Farm Farm Stand,480 Hempstead Ave,Malverne,11565.0,Nella Stranieri,NY,5168817900,http://www.xroadsfarmliny.com,"Fri 3pm-6pm;, Sat 9am-12pm;, Sun 10am-12pm",June 15-October 30,M,Y,N,N,Y,40.680659999999996,-73.66376
564,North Tonawanda City Sat Farmers' Market,310 Robinson Road,North Tonawanda,14120.0,Matt Parrish,NY,7166958555,http://www.northtonawanda.org/Departments/City%20Market.htm,Saturday  7am-1pm,Year-round,YR,Y,N,N,Y,43.033770000000004,-78.87021
565,Arnolds Farm Fresh Produce Farm Stand,1319 Sacandaga Rd,West Charlton,12010.0,Jason Arnold,NY,5182699562,http://www.arnoldsproduce.com,Daily 10am-6pm,June 1-November 23,M,Y,N,N,Y,42.96962,-74.02911
566,82nd Street Saint Stephen's Greenmarket,408 East 82nd Street,New York,10128.0,Siobahn Keys,NY,2127887476,http://www.grownyc.org/greenmarket/manhattan/82nd-street,Saturday  9am-2:30pm,Year-round,YR,Y,Y,N,Y,40.77394,-73.9506
567,Bushwick Hope Ball Field Farmers' Market,Knickerbocker Ave,Bushwick,10301.0,Novelette Scott,NY,7188210254,http://www.riseboro.org,Wednesday 9am-3pm,May 20-November 24,P/M,Y,N,N,Y,40.70117,-73.92251999999999
568,Sullivan Fresh Monticello Farmers' Market,512 Broadway,Monticello,12701.0,Michelle Proscia,NY,8452926180,http://www.sullivancce.org,Monday 11am-2pm,July 6-September 28,M,Y,Y,N,Y,41.65611,-74.69106
569,Heart of the Hudson Valley Farmers' Market,1801-1805 Rt 9W,Milton,12547.0,Sheila Mannese,NY,8456167824,http://www.hhvfarmersmarket.com,Saturday  10am-2pm,June 20-October 3,M,Y,N,N,Y,41.65312,-73.96193000000001
570,Clinton Farmers' Market,21 West Park Row,Clinton,13323.0,Jackie Walters,NY,3158531735,http://www.clintonnychamber.org,Thursday  10am-4pm,June 4-October 1,M,Y,Y,N,Y,43.04932,-75.37881
571,Brighton Farmers' Market,1150 Winton Rd South,Rochester,14618.0,Sue Gardner-Smith,NY,5852698918,http://www.brightonfarmersmarket.org,Sunday  9am-1pm,May 10-November 22,P/M,Y,Y,Y,Y,43.122040000000005,-77.56808000000001
572,MAP Mobile Market-Salvation Army,960 Main Street,Buffalo,14202.0,Danielle Rovillo,NY,7168825327,http://www.mass-ave.org,Tuesday 11am-1pm,Aug 1-October 27,M,Y,Y,N,Y,42.900079999999996,-78.87024
573,Franklin Farmers' Market,25 Institute St.,Franklin,13775.0,Brian Brock,NY,5187060612,http://www.facebook.com/Franklin-NY-Farmers-Market-123602750996783/,Sunday  10am-2pm,May 24-October 11,P/M,Y,N,N,Y,42.339009999999995,-75.1672
574,Genesee Country Thursday Farmers' Market,Bank St and Alva Place,Batavia,14020.0,Sharon Brent,NY,7165600853,,Thursday 9am-4pm,June 11-October 27,M,Y,Y,N,Y,42.99905,-78.18151
575,Oneida County Public Market,321 Main Street,Utica,13501.0,Elizabeth Irons,NY,3157983639,http://www.oneidacountymarket.com,Saturday  9am-1pm,May 16-December 26,P/M,Y,Y,Y,Y,43.10393,-75.2239
576,Roslyn Farmers' Market,500 Searingtown Rd,Roslyn Heights,11577.0,Ethel Terry,NY,6313233653,http://www.longislandgrowersmarket.com,Wednesday  7am-1pm,June 3-November 25,M,Y,N,N,Y,40.78188,-73.66277
577,EastSide Farmers' Market,760 East Water St,Elmira,14901.0,Danielle Howie,NY,6077344453,http://www.facebook.com/EastSideMarketElmiraNY/,Friday  3pm-6pm,June 19-October 9,M,Y,Y,N,Y,42.08905,-76.7922
578,Westside Farmers' Market,831 Genesee St,Rochester,14611.0,Jackie Farrell,NY,5854368999,http://www.westsidemarketrochester.com,Tuesday  4pm-7pm,June 9-October 13,M,Y,Y,N,Y,43.134058,-77.636523
579,Project EATS H&H Farmacy Farm Stand,2094 Pitkin Avenue,Brooklyn,11207.0,Shevan Durant,NY,2126121528,http://www.projecteats.org,Wed  10am-3pm,August 8-November 18,M,Y,Y,N,Y,40.67194,-73.89534
580,Harvest Home Coney Island Farm Stand,Ocean Pkwy and Avenue Z,Brooklyn,11235.0,Maritza Owens,NY,2128283361,http://www.harvesthomefm.org,Fri  8am-4pm,June 17 - November 25,M,Y,Y,N,Y,40.586690000000004,-73.96578000000001
581,Martin's Farm Stand,11 Needham Rd.,Potsdam,13676.0,Daniel Martin,NY,3152651246,http://www.martinsfarmstand.com,Mon-Sat  10am-6pm,May 6-November 25,P/M,Y,Y,N,Y,44.67107,-74.90401
582,Kirby's Farm Market,9739 Ridge Rd,Brockport,14420.0,Linda Kirby,NY,5856372600,,"Mon-Sat 9am-7pm  , Sunday  10am-5pm",May 1-December 24,P/M/X,Y,N,N,Y,43.251940000000005,-77.98451
583,Sleepy Hills Orchard Farm Stand,1328 Route 284,Johnson,10933.0,Amy King,NY,8457263797,http://www.sleepyhillsorchard.com,Daily 9am-6pm,July 8-November 25,M,Y,N,N,Y,41.35818,-74.50442
584,Sea Cliff Farmers Market,256 Sea Cliff Ave,"Sea Cliff,",11579.0,Amy Peters,NY,5163185487,https://www.facebook.com/seaclifffarmersmarket/,Saturdays 12-4 PM,"November 2- April 25, 2020",M/X/W/P,N,N,N,Y,40.84926,-73.64623
585,Canandaigua Farmers' Market,167 Mill Street,Canandaigua,14424.0,Brian Howell,NY,5854064771,http://www.canandaiguafarmersmarket.com,Sat  8:30am-12:30pm,June 6-October 31,M,Y,N,N,Y,42.8857,-77.27849
586,Empire State Plaza Wed Farmers' Market,170 State St,Albany,12210.0,Nicholas DeBlois,NY,5184863966,http://www.ogs.ny.gov,Wednesday  10am-2pm,July-October,M,Y,Y,N,Y,42.65068,-73.758
587,Haven of Hope Farm Stand,19 Cemetery Street,Fonda,12068.0,Pat Brooking,NY,5185223342,http://www.havenofhopefarm.org,"Fri/Sat 9am-4pm, Sunday 12pm-2pm",April 3-December 23,P/M/X,Y,Y,N,Y,42.95627,-74.36841
588,Curbside Market-EL Towers,500 South Ave,Rochester,14620.0,Andrea Cuzenz,NY,5854134069,http://www.foodlinkny.org,Tue  4:30pm-6pm,July 7-December 15,M/X,Y,Y,N,Y,43.1465,-77.60524000000001
589,Huntington Farm Stand I,9715 Ridge Rd.,Middleport,14105.0,Dan Huntington,NY,7163930590,,Daily 9am-7pm,June -October,M,Y,N,N,Y,43.24672,-78.48848000000001
590,Veggie Mobile-Center for Disability,700 South Pearl Street,Albany,12202.0,Audrey Bridge,NY,5182748685,http://www.capitalroots.org,Tue 12:15pm-1pm,Year-round,YR,Y,Y,Y,Y,42.63003,-73.76585
591,Palisades Indoor WINTER Farmers' Market,675 Oak Tree Rd,Palisades,10964.0,Carol Baxter,NY,8453593988,http://www.palisadesfm.org,Saturday  9am-1pm,December 7-May,W/P,N,N,N,Y,41.011524,-73.917671
592,Jackson Heights Greenmarket,78-99 34th Ave,Jackson heights,11372.0,Siobahn Keys,NY,2127887476,http://www.grownyc.org/greenmarket/queens/jackson-heights,Sunday  8am-2pm,Year-round,YR,Y,Y,N,Y,40.7535,-73.88790999999999
593,On the River Farm Stand,7579 Route 19,Belfast,14711.0,Stephen Demarte,NY,7165605594,,"Mon-Fri 3pm-6pm, Sat/Sun 12pm-6pm",June-November,M,Y,N,N,Y,42.34485,-78.11563000000001
594,Newark Farmers' Market,303 East Avenue,Newark,14513.0,Andrew Bodine,NY,3158791120,http://www.facebook.com/newarkfarmersmarket,Thursday  2pm-6pm,June 25-October 22,M,Y,Y,N,Y,43.04412,-77.09252
595,Bartel-Pritchard Square Wed Greenmarket,Prospect Park West and 14th Street,Brooklyn,11215.0,Siobahn Keys,NY,2127887476,http://www.grownyc.org/greenmarket,Wednesday 8am-3pm,Year-round,YR,Y,Y,N,Y,40.6616,-73.97939000000001
596,Curbside Market-Seneca Apartments-Geneva,529 Exchange St,Geneva,14456.0,Andrea Cuzenz,NY,5854134069,http://www.foodlinkny.org,Fri 1:45pm-2:45pm,July 10-December 18,M/X,Y,Y,N,Y,42.866690000000006,-76.98159
597,Groundwork Market Garden Farm Stand,1698 Genesee St.,Buffalo,14211.0,Mayda Pozantides,NY,7169087396,http://www.groundworkmg.com,Tuesday  4pm-7pm,June 9-October 27,M,Y,Y,N,Y,42.910920000000004,-78.81813000000001
598,Curbside Market-Charlotte Harbortower II,60 River Street,Rochester,14612.0,Andrea Cuzenz,NY,5854134069,http://www.foodlinkny.org,Fri 4:15pm-5:30pm,July 10-December 18,M/X,Y,Y,N,Y,43.2444,-77.61607
599,Badman's Bushel Basket,14698 Route 90,Cortland,13045.0,Scott Badman,NY,6077495233,,"Tue-Sat  9am-6:30pm, Sun 9am-5pm",May 5-October 30,P/M,Y,N,N,Y,42.63978,-76.27521999999999
600,Borough Park Greenmarket,14th Ave and 49th St,Brooklyn,11219.0,Siobahn Keys,NY,2127887476,http://www.grownyc.org/greenmarket,Thursday  8am-3pm,July 2-November 19,M,Y,Y,N,Y,40.6337,-73.98992
601,New Covenant Farmers' Market,916 Western Ave,Albany,12203.0,Katy Stenta,NY,5184828063,http://www.facebook.com/NewCovenantFarmersMarket/,Tuesday  3pm-6pm,May 19-September 29,P/M,Y,N,N,Y,42.67228,-73.81026
602,Dolgeville Farmers' Market,South Helmer Avenue,Dolgeville,13329.0,Christin Reynolds,NY,3158684557,http://www.facebook.com/DolgevilleFarmersMarket/,Saturday  9am-1pm,June 6-October 10,M,Y,N,N,Y,43.100570000000005,-74.7755
603,Delhi Farmers' Market,Main St and Court St,Delhi,13753.0,Meg Kennedy,NY,6072938128,http://www.facebook.com/DelhiFarmersMarket/,Wednesday  9am-2pm,June 3-September 30,M,Y,N,N,Y,42.277440000000006,-74.91673
604,Anderson's Produce Farm Stand,3058 Terry Road,Sinclairville,14782.0,Barb Swan,NY,7169622514,http://www.freshlocalwny.org/andersons_produce,Fri/Sat/Sun 12pm-5pm,July 24-October 31,M,Y,N,N,Y,42.22834,-79.2554
605,Northshire Farm Farm Stand,1067 US Highway 20,West Winfield,13491.0,S. James Grillo,NY,3157256226,http://www.northshirefarmstore.com,Daily 9am-7pm,June 1-December 1,M/X,Y,N,N,Y,42.894709999999996,-75.14503
606,Harvest Home Co-op City Farm Stand,199 Aldrich St.,Bronx,10475.0,Maritza Owens,NY,2128283361,http://www.harvesthomefm.org,Wednesday  8am-4pm,June 17 - November 25,M,Y,Y,N,Y,40.87025,-73.83097
607,MAP Mobile Market-Buffalo Promise,3251 Bailey Ave,Buffalo,14215.0,Danielle Rovillo,NY,7168825327,http://www.mass-ave.org,Tuesday 3pm-5pm,June 23-October 27,M,Y,Y,N,Y,42.9433,-78.8134
608,Valley View Farms Farm Stand,44 James St,Homer,13077.0,Joan Franklin,NY,6077493424,,Thursday 1pm-5pm,August 6-October 31,M,Y,N,N,Y,42.63646,-76.18335
609,Sullivan Fresh Market on the Move-Loch Sheldrake,Hasbrouck Rd.@ CR52,Lock Sheldrake,12788.0,Michelle Proscia,NY,8452926180,,Wednesday 3pm-5pm,July 1-Septebmer 30,M,Y,Y,N,Y,41.75888,-74.60189
610,Indian Lake Community Farmers' Market,Route 28 and Route 30,Indian Lake,12842.0,Brenda Valentine,NY,5186485636,http://www.facebook.com/IndianLakeFarmersMarket/,Saturday  10am-2pm,July 4-September 26,M,Y,N,N,Y,43.78247,-74.26541
611,Elmhurst Hospital Greenmarket,41st Ave and 80th St,Elmhurst,11373.0,Siobahn Keys,NY,2127887476,http://www.grownyc.org,Tuesday  8am-4pm,June 2-November 24,M,Y,Y,N,Y,40.7458,-73.88548
612,JCEO MM-Rainbow Park,2478 Rte 37,Fort Covington,12937.0,Richard LaVigne,NY,5183194028,http://www.jceo.org,Tue  12:15pm-2:00pm,June 9-October 13,M,Y,Y,N,Y,44.98837,-74.49625
613,City of Utica Farmers' Market,Bleeker St and 1st St,Utica,13501.0,Thalia Hunter,NY,3157920114,,Wednesday  8am-5pm,June 24-October 28,M,Y,Y,N,Y,43.100429999999996,-75.22483000000001
614,Friday Community Farmers' Market,East Park Place,Norwich,13815.0,Carol Eichler,NY,6073347674,,Friday/Sat  8am-4pm,May 1-November 30,P/M,Y,N,N,Y,42.53184,-75.5229
615,Fulton Farmers' Market,Canalview Mall,Fulton,13069.0,Sara Broadwell,NY,3153437681,,Saturday  8am-12pm,June 13-October 10,M,Y,Y,N,Y,43.3111,-76.40499
616,57th Street Saturday Greenmarket,891 Tenth Ave,New York,10019.0,Siobahn Keys,NY,2127887476,http://www.grownyc.org/greenmarket,Saturday  8am-5pm,June 6-November 21,M,Y,Y,N,Y,40.76943,-73.98835
617,HOG Farm Stand-Brookhaven,319 Beaverdam Rd,Brookhaven,11719.0,Lauren Napoli,NY,6317902561,http://thehogfarm.org,"M/W/F 3:30pm-6:30pm, Saturday  9am-1pm",May 20-December 20,P/M/X,Y,Y,N,Y,40.77329,-72.90525
618,Cooperstown Saturday Farmers' Market,101 Main St,Cooperstown,13326.0,Ellen Pope,NY,6075478881,http://www.cooperstownfarmersmarket.org,"Saturday 9am-2pm, 10am-2pm (Jan-Apr)",Year-round,YR,Y,Y,N,Y,42.70001,-74.92526
619,Country Fresh Tanger Outlets Farmers' Market,152 The Arches Circle,Deer Park,11747.0,Mary Schneider,NY,6316735844,,Saturday  10am-3pm,June 6-October 31,M,Y,N,N,Y,40.76307,-73.30507
620,Kinderhook Farmers' Market,US Route 9 and Hudson St,Kinderhook,12106.0,Kim Voltz,NY,5187559293,http://www.kinderhookfarmersmarket.com,Sat 8:30am-12:30pm,May 9-October 10,P/M,Y,N,N,Y,42.3954,-73.69816999999999
621,Rockefeller Center Wed Greenmarket,Rockefeller Plaza and West 50th St,New York,10112.0,Siobahn Keys,NY,2127887476,http://www.grownyc.org/greenmarket,Wednesday  8am-5pm,July 15-August 19; Sept 30-October 21,M,Y,Y,N,Y,40.75907,-73.97846
622,Hammond Farmers' and Artisans Market,1A North Main Street,Hammond,13646.0,Lori Thistle,NY,3153245032,http://www.facebook.com/thehammondfarmersmarket,Wednesday  3pm-6pm,June 19-September 18,M,Y,Y,N,Y,44.45118,-75.69312
623,Liberty Farmers' Market,119 N Main St,Liberty,12754.0,Beth Sullivan,NY,8454391230,http://www.catskillmountainkeeper.org,Friday 3pm-6pm,June 19-September 11,M,Y,Y,N,Y,41.80129,-74.74684
624,Cambridge Valley WINTER Farmers' Market,5 Washington Street,Cambridge,12816.0,Lindsay Fisk,NY,5185389467,http://www.cambridgevalleyfarmersmarket.com/,Sunday  10am-2pm,Nov 1-December 20,M/X,Y,N,N,Y,43.02872,-73.37955
625,Drinkwine Produce Farm Stand,Route 9N and 22 Street Road,Ticonderoga,12883.0,Henry Drinkwine,NY,5185856346,,"Mon-Sat  10am-6pm, Sun 10am-6pm",July 18-October 30,M,Y,N,N,Y,43.880320000000005,-73.44955
626,Oswego Farmers' Market,West Bridge St and West 1st St,Oswego,13126.0,Sara Broadwell,NY,3153437681,http://www.facebook.com/oswegofarmmarket,Thu  4:15pm-7:45pm,June 11-October 8,M,Y,Y,N,Y,43.456559999999996,-76.51127
627,Prays Family Farm Stand -Tupper Lake,89 Demars Blvd.,Tupper Lake,12986.0,Darcy Pray,NY,5188347437,,Saturday 9am-4pm,June 20-October 31,M,Y,N,N,Y,44.23305,-74.46489
628,Webster's Joe Obbie Farmers' Market,1028 Ridge Road,Webster,14580.0,Jason Bliek,NY,5852611533,http://www.webstersjoeobbiefarmersmarketinc.org,Saturday 8:30-1pm,June 13-October 31,M,Y,N,N,Y,43.20964,-77.45416
629,Mountain Weavers' Farm Store,4322 Main Street,Port Henry,12974.0,Pam Munson,NY,5185463386,http://www.mountainweaversguild.com,Mon-Fri 8am-4pm,Year-Round,YR,Y,Y,N,Y,44.04849,-73.45958
630,Veggie Mobile-Summit Towers,720 Albany street,Schenectady,12307.0,Audrey Bridge,NY,5182748685,http://www.capitalroots.org,Fri 1:30pm-2pm,Year-round,YR,Y,Y,Y,Y,42.80923,-73.93822
631,Schoharie Co. Festival Sat Farmers' Market,942 E. Main Rt. 7E,Cobleskill,12043.0,Donna Olsen,NY,5182842609,,Saturday  10am-2pm,July 11-October 10,M,Y,Y,N,Y,42.68005,-74.46673
632,Cazenovia WINTER Farmers' Market,26 Chenango Street,Cazenovia,13035.0,Tricia Park,NY,3157202141,http://www.cazenoviachamber.com,3rd Saturday  10am-1pm,November 1-March 1,M/X/W/P,N,N,N,Y,42.92467,-75.85168
633,Harvest Home St. Marys Park Farm Stand,646 E 149th St,Bronx,10455.0,Maritza Owens,NY,2128283361,http://www.harvesthomefm.org,Thursday  8am-4pm,June 4-November 19,M,Y,Y,N,Y,40.810990000000004,-73.91173
634,Niagara Falls City Monday Market,1800-1808 Pine Ave,Niagara Falls,14301.0,Victor Muto,NY,7167540798,http://www.local-farmers-markets.com/market/3569/niagara-falls/niagara-falls-city-market,Monday  9am-3pm,Year-round,YR,Y,N,N,Y,43.09513,-79.03971999999999
635,Morningside Park Farmers' Market,265 Manhattan Ave.,New York,10025.0,Miriam Haas,NY,9149234837,http://www.downtoearthmarkets.com,Saturday 9am-3pm,May 2-December 19,P/M/X,Y,Y,N,Y,40.80173,-73.95915
636,Veggie Mobile-Hillside View Apts,602 Craig Street,Schenectady,12307.0,Audrey Bridge,NY,5182748685,http://www.captialroots.org,Friday 2:15pm-3pm,Year-round,YR,Y,Y,Y,Y,42.80323,-73.93741
637,Pleasantville Farmers' Market,Manville Rd and Wheeler Ave,Pleasantville,10570.0,Steven Bates,NY,9142054545,http://www.pleasantvillefarmersmarket.org,Saturday  8:30am-1pm,March 14-December 19,P/M,Y,Y,N,Y,41.135259999999995,-73.79218
638,Johnstown Farmers' Market,109 E. Main Street,Johnstown,12095.0,Michael Tillson,NY,5188829306,http://www.fmfma.org,Tuesday  3pm-6pm,June 23-October 13,M,Y,N,N,Y,43.00636,-74.37420999999999
639,TFFJ Fresh Farm Market-Bronx,100 W Mosholu Pkwy South,Bronx,10468.0,Katherine Soll,NY,9292411029,http://www.teensforfoodjustice.org,Thursday 3pm-6pm,Year-Round,YR,N,Y,N,Y,40.88007,-73.88593
640,Nyack WINTER Farmers' Market,"56 Depew Ave, NY",Nyack,10960.0,Pam Moskowitz,NY,8454943408,http://www.nyackchamber.org,Thursday  8am-2pm,January 3-March 28,W,N,Y,N,Y,41.089496000000004,-73.919311
641,Tuxedo Farmers' Market,240 State Route 17,Tuxedo,10987.0,Lorraine Barbarash,NY,8453251278,http://www.tuxedofarmersmarket.com,Saturday  9am-2pm,June 13-October 31,M,N,N,N,Y,41.19447,-74.18446999999999
642,Savoy Park Farmers Market,560 Malcom X Blvd,New York,10037.0,Miriam Haas,NY,9149234837,http://www.downtoearthmarkets.com,Saturday 9am-3pm,August 15-November 27,M,Y,N,N,Y,40.81624,-73.93896
643,Veggie Van MM-St John De LaSalle,8600 Buffalo Ave.,Niagara Falls,14304.0,Jen Regan,NY,7162990905,,Thursday 10am-11am,June 1-October 31,M,Y,Y,N,Y,43.076370000000004,-78.96524000000001
644,Perry Farmers' Market,Main St and Borden Ave,Perry,14530.0,Rick Hauser,NY,5859913893,http://www.perryfarmersmarket.com,Sat  8:30am-12:30pm,June 20-September 26,M,Y,N,N,Y,42.71842,-78.00218000000001
645,Cortelyou Greenmarket,1399 Cortelyou Rd,Brooklyn,11226.0,Siobahn Keys,NY,2127887476,https://www.grownyc.org/farmstands,Sunday  8am-2pm,Year-round,YR,Y,Y,N,Y,40.640440000000005,-73.96616999999999
646,Bissel Gardens Farmers' Market-Sat,Baychester Ave and East 241st St,Bronx,10470.0,Heather Dombrowa,NY,3474272547,http://www.bisselgardens.org,Sat  10am-5pm,August 1-November 21,M,Y,N,N,Y,40.901509999999995,-73.84702
647,Alexandria Bay Farmers' Market,21 Route 12,Alexandria Bay,13607.0,Keri Jobson,NY,3154829531,http://www.visitalexbay.org,Friday  9am-3pm,May 25-September 14,P/M,N,N,N,Y,44.33191,-75.91425
648,Curbside Market-Manhattan Sq Family Medicine,454 E Broad St,Rochester,14607.0,Andrea Cuzenz,NY,5854134069,http://www.foodlinkny.org,Thu 2:15pm-3:30pm,July 9-December 17,M/X,Y,Y,N,Y,43.15531,-77.59957
649,East Aurora Saturday Farmers' Market,123 Grey St,East Aurora,14052.0,Gail Fenton,NY,5853439491,http://www.eastaurorafarmersmarket.com,Saturday  7am-1pm,May 2-November 21,P/M,Y,N,N,Y,42.76593,-78.63413
650,Brooklyn Grange Farm Stand @ SSP,850 3rd Ave,Brooklyn,11232.0,Ben Flanner,NY,6082150218,http://www.brooklyngrangefarm.org,Sunday 10am-4pm,May 24-November 1,M,Y,N,N,Y,40.6594,-74.0044
651,Brockport Farmers' Market,Main St and Market St,Brockport,14420.0,Charlene Veltz,NY,5857503382,http://www.brockportny.org/community/farmers-market,Sunday  8am-1pm,June 21 -October 25,M,Y,N,N,Y,43.215559999999996,-77.9385
652,Damin Farm Stand,8075 State Highway 5,St. Johnsville,13452.0,Barb Damin,NY,5185682643,,Daily  9am-6pm,Year-round,YR,Y,Y,N,Y,43.00497,-74.72233
653,Harvest Home Jacobi Hospital Fri Farmers Market,1400 Pelham Parkway,Bronx,10461.0,Maritza Owens,NY,2128283361,http://www.harvesthomefm.org,Fri  8am-4pm,July 10 -November 20,P/M,Y,Y,N,Y,40.85738,-73.84631
654,Owls Landing Farm Farm Stand,7411 West Road,Lowville,13367.0,John Ingham,NY,3153762268,http://owlslandingfarm.com,"Mon-Fri 3p-5p            , Sat/Sun 1p-6pm",September 1-Nov 30,M,Y,N,N,Y,43.78906,-75.54409
655,Rochester Public Market-Saturday,280 North Union St.,Rochester,14609.0,Cindy De Coste,NY,5854286907,http://www.cityofrochester.gov/publicmarket,Saturday 5am-3pm,Year-round,YR,Y,Y,N,Y,43.1657,-77.59016
656,Lyons Farmers' Market,32 Church Street,Lyons,14489.0,Joan Delaro,NY,3158714220,http://www.lyonsny.com/farmers-market.html,Sat  7:30am-12pm,June 20-October 31,M,Y,N,N,Y,43.063359999999996,-76.99243
657,Veggie Mobile Sprout-Edward A. Kane Apts,5 115th Street,Troy,12182.0,Audrey Bridge,NY,5182748685,http://www.capitalroots.org,Thu 11am-11:30am,Year-round,YR,Y,Y,Y,Y,42.7748,-73.67761
658,Capital Roots Produce Project Farm Stand,261 8th Street,Troy,12180.0,Nell Roberts,NY,5182748685,http://www.capitalroots.org,Tuesday  4pm-6pm,May 5-October 27,P/M,Y,Y,N,Y,42.73697,-73.68247
659,Clifton Park Farmers' Market,971 State Route 146,Clifton Park,12065.0,Emily Meagher,NY,5187083698,http://www.saratogafarmersmarket.org,Monday  2pm-5pm,June 1-October 26,M,Y,N,N,Y,42.8688,-73.80859
660,Gloversville Farmers' Market,9 Elm Street,Gloversville,12078.0,Michael Tillson,NY,5188829306,http://www.fmfma.org,Sat  8:30am-12:30pm,May 2-October 17,P/M,Y,Y,N,Y,43.052603999999995,-74.34579599999999
661,Flushing Greenmarket,Kissena Boulevard and Maple Avenue,Flushing,11355.0,Siobahn Keys,NY,2127887476,https://www.grownyc.org/farmstands,Wednesday  8am-3pm,July 8-November 25,M,Y,Y,N,Y,40.75636,-73.82579
662,JCEO MM-Franklin Co Courthouse,355 W Main St.,Malone,12953.0,Richard LaVigne,NY,5183194028,http://www.jceo.org,Thurs  11:30am-2pm,June 11-October 15,M,Y,Y,N,Y,44.84882,-74.29518
663,R.E.A.P. Olean Farmers' Market,400 N. Union St.,Olean,14760.0,Stephanie Beneg,NY,7163745257,http://www.oleanfarmersmarket.com,Saturday  8am-1pm,May 2-October 31,P/M,Y,Y,N,Y,42.083290000000005,-78.42987
664,Kennedy Plaza Long Beach Farmers' Market -Wed,1 West Chester St,Long Beach,11561.0,Bernadette Martin,NY,5165643485,http://www.ligreenmarket.org,Wednesday 9am-2pm,June 17-November 25,P/M,Y,N,N,Y,40.58943,-73.66592
665,Columbia Thu Greenmarket,Broadway and West 115th St,New York,10027.0,Siobahn Keys,NY,2127887476,http://www.grownyc.org/greenmarket/manhattan/columbia-th,Thursday  8am-5pm,Year-round,YR,Y,Y,N,Y,40.80731,-73.9643
666,Port Jervis Farmers' Market,100 Pike Street,Port Jervis,12771.0,Sarah Worthy,NY,8458005130,http://www.pjfarmmarket.com,Saturday  10am-2pm,June 6-October 3,M,Y,Y,N,Y,41.37555,-74.69237
667,Larchmont Farmers' Market,Metro-North parking deck off Chatsworth Avenue,Larchmont,10538.0,Miriam Haas,NY,9149234837,http://www.downtoearthmarkets.com,Saturday  8:30am-1pm,May 2-December 19,P/M/X,Y,Y,Y,Y,40.93322,-73.75950999999999
668,Canandaigua WINTER Farmers' Market,Antis St.,Canandaigua,14424.0,Rich Riedman,NY,5853946597,,"Every other Sat  , 10am-11am",November 14-May 31,M/X/W/P,Y,N,N,Y,42.88362,-77.2801
669,Isabahlia Farm Stand-Rockaway Ave,514 Rockaway Avenue,Brooklyn,11212.0,Brenda Thompson-Duchene,NY,7184983174,http://www.isabahlialoefinc.org,Fri/Sat 8am-3pm,June 30-October 31,M,Y,Y,N,Y,40.66751,-73.91020999999999
670,Waterloo Rotary Farmers' Market,22 Locust Street,Waterloo,13165.0,Dan Grillone,NY,8133820889,http://www.waterloofarmmarket.com,Saturday  9am-1pm,June 20-October 3,M,Y,Y,N,Y,42.90253,-76.86587
671,Seven Counties Farmers' Market-Fri,153 Main Street,Owego,13827.0,John Purdy,NY,6076428439,,Friday  9am-1pm,June 19-October 30,M,Y,N,N,Y,42.10315,-76.26335999999999
672,Enchanted Mountains Farmers Market,1900 Constituion Ave,Olean,14760.0,Tammy Gardner,NY,7165435475,,Friday 2pm-6pm,May 29-October 23,P/M,Y,N,N,Y,42.083040000000004,-78.45343000000001
673,Steen Orchard Farm Stand,1496 St Rt 11,Brushton,12916.0,Leona Steen,NY,5185296398,,"Mon-Fri 10am-6pm, Sat/Sun 11am-4pm",June 1-Oct 31,M,Y,N,N,Y,44.83379,-74.49148000000001
674,Veggie Mobile-Whitney Young Health Ctr,920 Lark Drive,Albany,12207.0,Audrey Bridge,NY,5182748685,http://www.capitalroots.org,Tue 11am-12pm,Year-round,YR,Y,Y,Y,Y,42.66215,-73.74859000000001
675,Windswept Meadows Farm Stand,17025 County Road 68,Watertown,13601.0,Delta Keeney,NY,3157881933,http://www.keeneyswindsweptmeadowsfarm.com,Daily  7am-8pm,June 26-October 29,M,Y,Y,N,Y,43.917840000000005,-75.87206
676,Rhinebeck Farmers' Market,61 East Market St,Rhinebeck,12572.0,Andrea Bartolomeo,NY,5188211481,http://www.rhinebeckfarmersmarket.com,Sunday  10am-2pm,May 3-December 27,P/M/X,Y,Y,N,Y,41.927040000000005,-73.91027
677,Farmers' Market at the Crossings,580 Albany Shaker Rd,Colonie,12211.0,Laura Archambault,NY,5187832760,http://www.colonie.org,Saturday  9am-1pm,June 13-September 26,M,Y,N,N,Y,42.710159999999995,-73.78029000000001
678,Troy Waterfront Farmers' Market,282 River St,Troy,12180.0,Stephen Ridler,NY,5187084216,http://www.troymarket.org,Saturday  8:30am-4pm,May 16-October 26,P/M,Y,Y,Y,Y,42.73214,-73.6905
679,Riverside Farms Farm Market,3314 Riverside Drive,Scio,14895.0,Stephen Demarte,NY,7165605594,,"Mon-Fri  10am-7pm, Sat/Sun  12pm-6pm",April-December,P/M/X,Y,N,N,Y,42.14093,-77.97553
680,Pawling Farmers' Market,154 Charles Colman Blvd.,Pawling,12564.0,Betsy Montgomery,NY,9179418762,http://www.pawlingfarmersmarket.org,Saturday  9am-1pm,June 13-September 27,M,Y,N,N,Y,41.56315,-73.60143000000001
681,Lockport Community WINTER Farmers' Market,210 Walnut Street,Lockport,14094.0,Jessica Dittly,NY,7164340212,http://www.lockportcommunitymarket.com,1st & 3rd Saturday  10am-2pm,November 2-May 16,M/X/W/P,N,Y,N,Y,43.16982,-78.68755
682,Fort Plain Farm Stand,12 Willet Street,Fort Plain,13339.0,Annette Rorick,NY,5189934271,,Thu/Fri  10am-3pm,June 25-October 30,M,Y,N,N,Y,42.9316,-74.62182
683,Chelsea Farmers' Market,383 W 23rd Street,New York,10011.0,Miriam Haas,NY,9149234837,http://www.downtoearthmarkets.com,Saturday  9am-3pm,June 6-December 19,P/M/X,Y,Y,N,Y,40.74633,-74.00081
